<?xml version="1.0" encoding="UTF-8"?>
<kml xmlns="http://www.opengis.net/kml/2.2">
  <Document>
    <name>FRECUENCIAS ATE 2 </name>
    <description>Este mapa tiene como objetivo detallar los límites por distrito, los cuales han sido divididos en tres zonas. Las frecuencias están definidas de acuerdo con el color asignado a cada zona.</description>
    <Style id="poly-000000-1200-77-normal">
      <LineStyle>
        <color>ff000000</color>
        <width>1.2</width>
      </LineStyle>
      <PolyStyle>
        <color>4d000000</color>
        <fill>1</fill>
        <outline>1</outline>
      </PolyStyle>
    </Style>
    <Style id="poly-000000-1200-77-highlight">
      <LineStyle>
        <color>ff000000</color>
        <width>1.8</width>
      </LineStyle>
      <PolyStyle>
        <color>4d000000</color>
        <fill>1</fill>
        <outline>1</outline>
      </PolyStyle>
    </Style>
    <StyleMap id="poly-000000-1200-77">
      <Pair>
        <key>normal</key>
        <styleUrl>#poly-000000-1200-77-normal</styleUrl>
      </Pair>
      <Pair>
        <key>highlight</key>
        <styleUrl>#poly-000000-1200-77-highlight</styleUrl>
      </Pair>
    </StyleMap>
    <Style id="poly-000000-1889-77-normal">
      <LineStyle>
        <color>ff000000</color>
        <width>1.889</width>
      </LineStyle>
      <PolyStyle>
        <color>4d000000</color>
        <fill>1</fill>
        <outline>1</outline>
      </PolyStyle>
    </Style>
    <Style id="poly-000000-1889-77-highlight">
      <LineStyle>
        <color>ff000000</color>
        <width>2.8335</width>
      </LineStyle>
      <PolyStyle>
        <color>4d000000</color>
        <fill>1</fill>
        <outline>1</outline>
      </PolyStyle>
    </Style>
    <StyleMap id="poly-000000-1889-77">
      <Pair>
        <key>normal</key>
        <styleUrl>#poly-000000-1889-77-normal</styleUrl>
      </Pair>
      <Pair>
        <key>highlight</key>
        <styleUrl>#poly-000000-1889-77-highlight</styleUrl>
      </Pair>
    </StyleMap>
    <Style id="poly-000000-2287-77-normal">
      <LineStyle>
        <color>ff000000</color>
        <width>2.287</width>
      </LineStyle>
      <PolyStyle>
        <color>4d000000</color>
        <fill>1</fill>
        <outline>1</outline>
      </PolyStyle>
    </Style>
    <Style id="poly-000000-2287-77-highlight">
      <LineStyle>
        <color>ff000000</color>
        <width>3.4305</width>
      </LineStyle>
      <PolyStyle>
        <color>4d000000</color>
        <fill>1</fill>
        <outline>1</outline>
      </PolyStyle>
    </Style>
    <StyleMap id="poly-000000-2287-77">
      <Pair>
        <key>normal</key>
        <styleUrl>#poly-000000-2287-77-normal</styleUrl>
      </Pair>
      <Pair>
        <key>highlight</key>
        <styleUrl>#poly-000000-2287-77-highlight</styleUrl>
      </Pair>
    </StyleMap>
    <Style id="poly-000000-2684-77-normal">
      <LineStyle>
        <color>ff000000</color>
        <width>2.684</width>
      </LineStyle>
      <PolyStyle>
        <color>4d000000</color>
        <fill>1</fill>
        <outline>1</outline>
      </PolyStyle>
    </Style>
    <Style id="poly-000000-2684-77-highlight">
      <LineStyle>
        <color>ff000000</color>
        <width>4.026</width>
      </LineStyle>
      <PolyStyle>
        <color>4d000000</color>
        <fill>1</fill>
        <outline>1</outline>
      </PolyStyle>
    </Style>
    <StyleMap id="poly-000000-2684-77">
      <Pair>
        <key>normal</key>
        <styleUrl>#poly-000000-2684-77-normal</styleUrl>
      </Pair>
      <Pair>
        <key>highlight</key>
        <styleUrl>#poly-000000-2684-77-highlight</styleUrl>
      </Pair>
    </StyleMap>
    <Style id="poly-006064-2485-168-normal">
      <LineStyle>
        <color>ff646000</color>
        <width>2.485</width>
      </LineStyle>
      <PolyStyle>
        <color>a8646000</color>
        <fill>1</fill>
        <outline>1</outline>
      </PolyStyle>
    </Style>
    <Style id="poly-006064-2485-168-highlight">
      <LineStyle>
        <color>ff646000</color>
        <width>3.7275</width>
      </LineStyle>
      <PolyStyle>
        <color>a8646000</color>
        <fill>1</fill>
        <outline>1</outline>
      </PolyStyle>
    </Style>
    <StyleMap id="poly-006064-2485-168">
      <Pair>
        <key>normal</key>
        <styleUrl>#poly-006064-2485-168-normal</styleUrl>
      </Pair>
      <Pair>
        <key>highlight</key>
        <styleUrl>#poly-006064-2485-168-highlight</styleUrl>
      </Pair>
    </StyleMap>
    <Style id="poly-006064-2585-166-normal">
      <LineStyle>
        <color>ff646000</color>
        <width>2.585</width>
      </LineStyle>
      <PolyStyle>
        <color>a6646000</color>
        <fill>1</fill>
        <outline>1</outline>
      </PolyStyle>
    </Style>
    <Style id="poly-006064-2585-166-highlight">
      <LineStyle>
        <color>ff646000</color>
        <width>3.8775</width>
      </LineStyle>
      <PolyStyle>
        <color>a6646000</color>
        <fill>1</fill>
        <outline>1</outline>
      </PolyStyle>
    </Style>
    <StyleMap id="poly-006064-2585-166">
      <Pair>
        <key>normal</key>
        <styleUrl>#poly-006064-2585-166-normal</styleUrl>
      </Pair>
      <Pair>
        <key>highlight</key>
        <styleUrl>#poly-006064-2585-166-highlight</styleUrl>
      </Pair>
    </StyleMap>
    <Style id="poly-006064-2982-125-normal">
      <LineStyle>
        <color>ff646000</color>
        <width>2.982</width>
      </LineStyle>
      <PolyStyle>
        <color>7d646000</color>
        <fill>1</fill>
        <outline>1</outline>
      </PolyStyle>
    </Style>
    <Style id="poly-006064-2982-125-highlight">
      <LineStyle>
        <color>ff646000</color>
        <width>4.473</width>
      </LineStyle>
      <PolyStyle>
        <color>7d646000</color>
        <fill>1</fill>
        <outline>1</outline>
      </PolyStyle>
    </Style>
    <StyleMap id="poly-006064-2982-125">
      <Pair>
        <key>normal</key>
        <styleUrl>#poly-006064-2982-125-normal</styleUrl>
      </Pair>
      <Pair>
        <key>highlight</key>
        <styleUrl>#poly-006064-2982-125-highlight</styleUrl>
      </Pair>
    </StyleMap>
    <Style id="poly-006064-3082-115-normal">
      <LineStyle>
        <color>ff646000</color>
        <width>3.082</width>
      </LineStyle>
      <PolyStyle>
        <color>73646000</color>
        <fill>1</fill>
        <outline>1</outline>
      </PolyStyle>
    </Style>
    <Style id="poly-006064-3082-115-highlight">
      <LineStyle>
        <color>ff646000</color>
        <width>4.623</width>
      </LineStyle>
      <PolyStyle>
        <color>73646000</color>
        <fill>1</fill>
        <outline>1</outline>
      </PolyStyle>
    </Style>
    <StyleMap id="poly-006064-3082-115">
      <Pair>
        <key>normal</key>
        <styleUrl>#poly-006064-3082-115-normal</styleUrl>
      </Pair>
      <Pair>
        <key>highlight</key>
        <styleUrl>#poly-006064-3082-115-highlight</styleUrl>
      </Pair>
    </StyleMap>
    <Style id="poly-006064-3082-140-normal">
      <LineStyle>
        <color>ff646000</color>
        <width>3.082</width>
      </LineStyle>
      <PolyStyle>
        <color>8c646000</color>
        <fill>1</fill>
        <outline>1</outline>
      </PolyStyle>
    </Style>
    <Style id="poly-006064-3082-140-highlight">
      <LineStyle>
        <color>ff646000</color>
        <width>4.623</width>
      </LineStyle>
      <PolyStyle>
        <color>8c646000</color>
        <fill>1</fill>
        <outline>1</outline>
      </PolyStyle>
    </Style>
    <StyleMap id="poly-006064-3082-140">
      <Pair>
        <key>normal</key>
        <styleUrl>#poly-006064-3082-140-normal</styleUrl>
      </Pair>
      <Pair>
        <key>highlight</key>
        <styleUrl>#poly-006064-3082-140-highlight</styleUrl>
      </Pair>
    </StyleMap>
    <Style id="poly-006064-3082-156-normal">
      <LineStyle>
        <color>ff646000</color>
        <width>3.082</width>
      </LineStyle>
      <PolyStyle>
        <color>9c646000</color>
        <fill>1</fill>
        <outline>1</outline>
      </PolyStyle>
    </Style>
    <Style id="poly-006064-3082-156-highlight">
      <LineStyle>
        <color>ff646000</color>
        <width>4.623</width>
      </LineStyle>
      <PolyStyle>
        <color>9c646000</color>
        <fill>1</fill>
        <outline>1</outline>
      </PolyStyle>
    </Style>
    <StyleMap id="poly-006064-3082-156">
      <Pair>
        <key>normal</key>
        <styleUrl>#poly-006064-3082-156-normal</styleUrl>
      </Pair>
      <Pair>
        <key>highlight</key>
        <styleUrl>#poly-006064-3082-156-highlight</styleUrl>
      </Pair>
    </StyleMap>
    <Style id="poly-006064-3380-130-normal">
      <LineStyle>
        <color>ff646000</color>
        <width>3.38</width>
      </LineStyle>
      <PolyStyle>
        <color>82646000</color>
        <fill>1</fill>
        <outline>1</outline>
      </PolyStyle>
    </Style>
    <Style id="poly-006064-3380-130-highlight">
      <LineStyle>
        <color>ff646000</color>
        <width>5.07</width>
      </LineStyle>
      <PolyStyle>
        <color>82646000</color>
        <fill>1</fill>
        <outline>1</outline>
      </PolyStyle>
    </Style>
    <StyleMap id="poly-006064-3380-130">
      <Pair>
        <key>normal</key>
        <styleUrl>#poly-006064-3380-130-normal</styleUrl>
      </Pair>
      <Pair>
        <key>highlight</key>
        <styleUrl>#poly-006064-3380-130-highlight</styleUrl>
      </Pair>
    </StyleMap>
    <Style id="poly-006064-3777-128-normal">
      <LineStyle>
        <color>ff646000</color>
        <width>3.777</width>
      </LineStyle>
      <PolyStyle>
        <color>80646000</color>
        <fill>1</fill>
        <outline>1</outline>
      </PolyStyle>
    </Style>
    <Style id="poly-006064-3777-128-highlight">
      <LineStyle>
        <color>ff646000</color>
        <width>5.6655</width>
      </LineStyle>
      <PolyStyle>
        <color>80646000</color>
        <fill>1</fill>
        <outline>1</outline>
      </PolyStyle>
    </Style>
    <StyleMap id="poly-006064-3777-128">
      <Pair>
        <key>normal</key>
        <styleUrl>#poly-006064-3777-128-normal</styleUrl>
      </Pair>
      <Pair>
        <key>highlight</key>
        <styleUrl>#poly-006064-3777-128-highlight</styleUrl>
      </Pair>
    </StyleMap>
    <Style id="poly-006064-4771-105-normal">
      <LineStyle>
        <color>ff646000</color>
        <width>4.771</width>
      </LineStyle>
      <PolyStyle>
        <color>69646000</color>
        <fill>1</fill>
        <outline>1</outline>
      </PolyStyle>
    </Style>
    <Style id="poly-006064-4771-105-highlight">
      <LineStyle>
        <color>ff646000</color>
        <width>7.1565</width>
      </LineStyle>
      <PolyStyle>
        <color>69646000</color>
        <fill>1</fill>
        <outline>1</outline>
      </PolyStyle>
    </Style>
    <StyleMap id="poly-006064-4771-105">
      <Pair>
        <key>normal</key>
        <styleUrl>#poly-006064-4771-105-normal</styleUrl>
      </Pair>
      <Pair>
        <key>highlight</key>
        <styleUrl>#poly-006064-4771-105-highlight</styleUrl>
      </Pair>
    </StyleMap>
    <Style id="poly-E65100-1889-77-normal">
      <LineStyle>
        <color>ff0051e6</color>
        <width>1.889</width>
      </LineStyle>
      <PolyStyle>
        <color>4d0051e6</color>
        <fill>1</fill>
        <outline>1</outline>
      </PolyStyle>
    </Style>
    <Style id="poly-E65100-1889-77-highlight">
      <LineStyle>
        <color>ff0051e6</color>
        <width>2.8335</width>
      </LineStyle>
      <PolyStyle>
        <color>4d0051e6</color>
        <fill>1</fill>
        <outline>1</outline>
      </PolyStyle>
    </Style>
    <StyleMap id="poly-E65100-1889-77">
      <Pair>
        <key>normal</key>
        <styleUrl>#poly-E65100-1889-77-normal</styleUrl>
      </Pair>
      <Pair>
        <key>highlight</key>
        <styleUrl>#poly-E65100-1889-77-highlight</styleUrl>
      </Pair>
    </StyleMap>
    <Style id="poly-E65100-2287-56-normal">
      <LineStyle>
        <color>ff0051e6</color>
        <width>2.287</width>
      </LineStyle>
      <PolyStyle>
        <color>380051e6</color>
        <fill>1</fill>
        <outline>1</outline>
      </PolyStyle>
    </Style>
    <Style id="poly-E65100-2287-56-highlight">
      <LineStyle>
        <color>ff0051e6</color>
        <width>3.4305</width>
      </LineStyle>
      <PolyStyle>
        <color>380051e6</color>
        <fill>1</fill>
        <outline>1</outline>
      </PolyStyle>
    </Style>
    <StyleMap id="poly-E65100-2287-56">
      <Pair>
        <key>normal</key>
        <styleUrl>#poly-E65100-2287-56-normal</styleUrl>
      </Pair>
      <Pair>
        <key>highlight</key>
        <styleUrl>#poly-E65100-2287-56-highlight</styleUrl>
      </Pair>
    </StyleMap>
    <Style id="poly-E65100-2386-77-normal">
      <LineStyle>
        <color>ff0051e6</color>
        <width>2.386</width>
      </LineStyle>
      <PolyStyle>
        <color>4d0051e6</color>
        <fill>1</fill>
        <outline>1</outline>
      </PolyStyle>
    </Style>
    <Style id="poly-E65100-2386-77-highlight">
      <LineStyle>
        <color>ff0051e6</color>
        <width>3.579</width>
      </LineStyle>
      <PolyStyle>
        <color>4d0051e6</color>
        <fill>1</fill>
        <outline>1</outline>
      </PolyStyle>
    </Style>
    <StyleMap id="poly-E65100-2386-77">
      <Pair>
        <key>normal</key>
        <styleUrl>#poly-E65100-2386-77-normal</styleUrl>
      </Pair>
      <Pair>
        <key>highlight</key>
        <styleUrl>#poly-E65100-2386-77-highlight</styleUrl>
      </Pair>
    </StyleMap>
    <Style id="poly-E65100-2485-77-normal">
      <LineStyle>
        <color>ff0051e6</color>
        <width>2.485</width>
      </LineStyle>
      <PolyStyle>
        <color>4d0051e6</color>
        <fill>1</fill>
        <outline>1</outline>
      </PolyStyle>
    </Style>
    <Style id="poly-E65100-2485-77-highlight">
      <LineStyle>
        <color>ff0051e6</color>
        <width>3.7275</width>
      </LineStyle>
      <PolyStyle>
        <color>4d0051e6</color>
        <fill>1</fill>
        <outline>1</outline>
      </PolyStyle>
    </Style>
    <StyleMap id="poly-E65100-2485-77">
      <Pair>
        <key>normal</key>
        <styleUrl>#poly-E65100-2485-77-normal</styleUrl>
      </Pair>
      <Pair>
        <key>highlight</key>
        <styleUrl>#poly-E65100-2485-77-highlight</styleUrl>
      </Pair>
    </StyleMap>
    <Style id="poly-E65100-2585-99-normal">
      <LineStyle>
        <color>ff0051e6</color>
        <width>2.585</width>
      </LineStyle>
      <PolyStyle>
        <color>630051e6</color>
        <fill>1</fill>
        <outline>1</outline>
      </PolyStyle>
    </Style>
    <Style id="poly-E65100-2585-99-highlight">
      <LineStyle>
        <color>ff0051e6</color>
        <width>3.8775</width>
      </LineStyle>
      <PolyStyle>
        <color>630051e6</color>
        <fill>1</fill>
        <outline>1</outline>
      </PolyStyle>
    </Style>
    <StyleMap id="poly-E65100-2585-99">
      <Pair>
        <key>normal</key>
        <styleUrl>#poly-E65100-2585-99-normal</styleUrl>
      </Pair>
      <Pair>
        <key>highlight</key>
        <styleUrl>#poly-E65100-2585-99-highlight</styleUrl>
      </Pair>
    </StyleMap>
    <Style id="poly-E65100-2684-102-normal">
      <LineStyle>
        <color>ff0051e6</color>
        <width>2.684</width>
      </LineStyle>
      <PolyStyle>
        <color>660051e6</color>
        <fill>1</fill>
        <outline>1</outline>
      </PolyStyle>
    </Style>
    <Style id="poly-E65100-2684-102-highlight">
      <LineStyle>
        <color>ff0051e6</color>
        <width>4.026</width>
      </LineStyle>
      <PolyStyle>
        <color>660051e6</color>
        <fill>1</fill>
        <outline>1</outline>
      </PolyStyle>
    </Style>
    <StyleMap id="poly-E65100-2684-102">
      <Pair>
        <key>normal</key>
        <styleUrl>#poly-E65100-2684-102-normal</styleUrl>
      </Pair>
      <Pair>
        <key>highlight</key>
        <styleUrl>#poly-E65100-2684-102-highlight</styleUrl>
      </Pair>
    </StyleMap>
    <Style id="poly-E65100-2783-120-normal">
      <LineStyle>
        <color>ff0051e6</color>
        <width>2.783</width>
      </LineStyle>
      <PolyStyle>
        <color>780051e6</color>
        <fill>1</fill>
        <outline>1</outline>
      </PolyStyle>
    </Style>
    <Style id="poly-E65100-2783-120-highlight">
      <LineStyle>
        <color>ff0051e6</color>
        <width>4.1745</width>
      </LineStyle>
      <PolyStyle>
        <color>780051e6</color>
        <fill>1</fill>
        <outline>1</outline>
      </PolyStyle>
    </Style>
    <StyleMap id="poly-E65100-2783-120">
      <Pair>
        <key>normal</key>
        <styleUrl>#poly-E65100-2783-120-normal</styleUrl>
      </Pair>
      <Pair>
        <key>highlight</key>
        <styleUrl>#poly-E65100-2783-120-highlight</styleUrl>
      </Pair>
    </StyleMap>
    <Style id="poly-E65100-2783-99-normal">
      <LineStyle>
        <color>ff0051e6</color>
        <width>2.783</width>
      </LineStyle>
      <PolyStyle>
        <color>630051e6</color>
        <fill>1</fill>
        <outline>1</outline>
      </PolyStyle>
    </Style>
    <Style id="poly-E65100-2783-99-highlight">
      <LineStyle>
        <color>ff0051e6</color>
        <width>4.1745</width>
      </LineStyle>
      <PolyStyle>
        <color>630051e6</color>
        <fill>1</fill>
        <outline>1</outline>
      </PolyStyle>
    </Style>
    <StyleMap id="poly-E65100-2783-99">
      <Pair>
        <key>normal</key>
        <styleUrl>#poly-E65100-2783-99-normal</styleUrl>
      </Pair>
      <Pair>
        <key>highlight</key>
        <styleUrl>#poly-E65100-2783-99-highlight</styleUrl>
      </Pair>
    </StyleMap>
    <Style id="poly-E65100-3479-77-normal">
      <LineStyle>
        <color>ff0051e6</color>
        <width>3.479</width>
      </LineStyle>
      <PolyStyle>
        <color>4d0051e6</color>
        <fill>1</fill>
        <outline>1</outline>
      </PolyStyle>
    </Style>
    <Style id="poly-E65100-3479-77-highlight">
      <LineStyle>
        <color>ff0051e6</color>
        <width>5.2185</width>
      </LineStyle>
      <PolyStyle>
        <color>4d0051e6</color>
        <fill>1</fill>
        <outline>1</outline>
      </PolyStyle>
    </Style>
    <StyleMap id="poly-E65100-3479-77">
      <Pair>
        <key>normal</key>
        <styleUrl>#poly-E65100-3479-77-normal</styleUrl>
      </Pair>
      <Pair>
        <key>highlight</key>
        <styleUrl>#poly-E65100-3479-77-highlight</styleUrl>
      </Pair>
    </StyleMap>
    <Folder>
      <name>DISTRITOS DIVIDIOS </name>
      <Placemark>
        <name>ZONA A MIRAFLORES</name>
        <description>LJ</description>
        <styleUrl>#poly-000000-1200-77</styleUrl>
        <Polygon>
          <outerBoundaryIs>
            <LinearRing>
              <tessellate>1</tessellate>
              <coordinates>
                -77.0411036,-12.1189891,0
                -77.0335531,-12.1190732,0
                -77.0260456,-12.1192828,0
                -77.0262173,-12.1175206,0
                -77.0260885,-12.1128211,0
                -77.0261744,-12.1087929,0
                -77.0272043,-12.1064012,0
                -77.0274189,-12.1028345,0
                -77.0313671,-12.1035898,0
                -77.0365599,-12.1099259,0
                -77.0366592,-12.1100429,0
                -77.0369864,-12.109938,0
                -77.0372439,-12.1100429,0
                -77.0382202,-12.1089677,0
                -77.0390678,-12.1097964,0
                -77.0404588,-12.1083745,0
                -77.0431679,-12.1109262,0
                -77.0434629,-12.1106797,0
                -77.0441066,-12.1104594,0
                -77.0461773,-12.1105328,0
                -77.0466708,-12.110942,0
                -77.0493316,-12.1083194,0
                -77.0513271,-12.1102706,0
                -77.0530893,-12.1086971,0
                -77.0534005,-12.1094943,0
                -77.0536204,-12.1096569,0
                -77.0542937,-12.1097068,0
                -77.0545351,-12.1098169,0
                -77.0548033,-12.1099847,0
                -77.0561624,-12.11162,0
                -77.0523146,-12.1140597,0
                -77.0507053,-12.1159688,0
                -77.0496539,-12.1173115,0
                -77.0468858,-12.1188221,0
                -77.0461134,-12.1197242,0
                -77.0425085,-12.1194724,0
                -77.0423797,-12.118906,0
                -77.0411036,-12.1189891,0
              </coordinates>
            </LinearRing>
          </outerBoundaryIs>
        </Polygon>
      </Placemark>
      <Placemark>
        <name>ZONA B MIRAFLORES</name>
        <description>MV</description>
        <styleUrl>#poly-E65100-2485-77</styleUrl>
        <Polygon>
          <outerBoundaryIs>
            <LinearRing>
              <tessellate>1</tessellate>
              <coordinates>
                -77.0457693,-12.1200339,0
                -77.0443102,-12.1226982,0
                -77.0407697,-12.1245234,0
                -77.0370146,-12.1282367,0
                -77.0353409,-12.1307121,0
                -77.0325514,-12.1323904,0
                -77.0300194,-12.1345722,0
                -77.0281311,-12.1395649,0
                -77.0253845,-12.1365441,0
                -77.0210071,-12.1341526,0
                -77.0238395,-12.1260549,0
                -77.0257707,-12.1194674,0
                -77.0423797,-12.118906,0
                -77.0425085,-12.1194724,0
                -77.0457693,-12.1200339,0
              </coordinates>
            </LinearRing>
          </outerBoundaryIs>
        </Polygon>
      </Placemark>
      <Placemark>
        <name>ZONA C MIRAFLORES</name>
        <description>XS</description>
        <styleUrl>#poly-006064-2982-125</styleUrl>
        <Polygon>
          <outerBoundaryIs>
            <LinearRing>
              <tessellate>1</tessellate>
              <coordinates>
                -77.0257904,-12.1192196,0
                -77.0257675,-12.1193434,0
                -77.0217764,-12.1324394,0
                -77.0210628,-12.1330731,0
                -77.0194729,-12.130557,0
                -77.0190867,-12.1312598,0
                -77.0179709,-12.1312545,0
                -77.0179495,-12.1286296,0
                -77.0177423,-12.1286318,0
                -77.0167553,-12.1286738,0
                -77.0163047,-12.1290304,0
                -77.0156502,-12.1295549,0
                -77.0138263,-12.1295024,0
                -77.0123872,-12.1288891,0
                -77.0122148,-12.1292554,0
                -77.0124374,-12.1303804,0
                -77.0112085,-12.1306038,0
                -77.0080213,-12.1303363,0
                -77.0045995,-12.1315688,0
                -77.0034392,-12.1314478,0
                -77.0033925,-12.1318679,0
                -77.0027863,-12.1321143,0
                -77.0012793,-12.1293971,0
                -77.0013222,-12.128474,0
                -77.0039499,-12.1249733,0
                -77.0101842,-12.1156767,0
                -77.0132098,-12.1177957,0
                -77.0131883,-12.1187817,0
                -77.0138418,-12.1188473,0
                -77.0138749,-12.1192957,0
                -77.0173189,-12.1193586,0
                -77.0172974,-12.1204705,0
                -77.0181879,-12.120523,0
                -77.0184767,-12.1195187,0
                -77.0237982,-12.1200642,0
                -77.0250075,-12.1192816,0
                -77.0257904,-12.1192196,0
              </coordinates>
            </LinearRing>
          </outerBoundaryIs>
        </Polygon>
      </Placemark>
      <Placemark>
        <name>ZONA C SAN ISIDRO</name>
        <description>xs</description>
        <styleUrl>#poly-006064-2485-168</styleUrl>
        <Polygon>
          <outerBoundaryIs>
            <LinearRing>
              <tessellate>1</tessellate>
              <coordinates>
                -77.0211975,-12.0906552,0
                -77.0223562,-12.0910749,0
                -77.0244591,-12.0955649,0
                -77.026476,-12.1002647,0
                -77.0267322,-12.1029184,0
                -77.0227114,-12.1023926,0
                -77.0189349,-12.1020149,0
                -77.0165316,-12.1023401,0
                -77.016596,-12.1033367,0
                -77.0161561,-12.1035255,0
                -77.0164103,-12.1041527,0
                -77.0166356,-12.10538,0
                -77.016142,-12.1061616,0
                -77.0153857,-12.1071948,0
                -77.0149619,-12.1078295,0
                -77.0144952,-12.1079764,0
                -77.0106167,-12.107305,0
                -77.0104879,-12.1072893,0
                -77.0112547,-12.1037976,0
                -77.0120809,-12.0998771,0
                -77.0117161,-12.0974223,0
                -77.0086477,-12.0918203,0
                -77.0074675,-12.0897431,0
                -77.0076177,-12.088694,0
                -77.0211975,-12.0906552,0
              </coordinates>
            </LinearRing>
          </outerBoundaryIs>
        </Polygon>
      </Placemark>
      <Placemark>
        <name>ZONA A SAN ISIDRO</name>
        <description>LJ</description>
        <styleUrl>#poly-000000-1200-77</styleUrl>
        <Polygon>
          <outerBoundaryIs>
            <LinearRing>
              <tessellate>1</tessellate>
              <coordinates>
                -77.0583933,-12.0966049,0
                -77.0590717,-12.0980985,0
                -77.0594526,-12.0991633,0
                -77.059871,-12.0998661,0
                -77.0601392,-12.0997822,0
                -77.0606542,-12.1007264,0
                -77.0606543,-12.1010105,0
                -77.0605524,-12.1011626,0
                -77.060665,-12.1019756,0
                -77.0604612,-12.1028883,0
                -77.0606865,-12.1035912,0
                -77.0602037,-12.104252,0
                -77.0605792,-12.1068222,0
                -77.0580152,-12.1086885,0
                -77.0558051,-12.1101571,0
                -77.053552,-12.109213,0
                -77.0532087,-12.1084577,0
                -77.0512627,-12.1101237,0
                -77.0493638,-12.1082984,0
                -77.0474413,-12.1100325,0
                -77.0472534,-12.1102513,0
                -77.0466923,-12.1108791,0
                -77.0461431,-12.1104873,0
                -77.0444265,-12.1104611,0
                -77.0442708,-12.11044,0
                -77.0438283,-12.1105187,0
                -77.0436124,-12.1106106,0
                -77.0433482,-12.1107181,0
                -77.0431829,-12.1109008,0
                -77.0430499,-12.1107793,0
                -77.040491,-12.108322,0
                -77.0390689,-12.1097334,0
                -77.038188,-12.1089152,0
                -77.0371903,-12.1099695,0
                -77.0370092,-12.1099241,0
                -77.0366645,-12.1099915,0
                -77.0315801,-12.1035546,0
                -77.0273545,-12.1026876,0
                -77.027074,-12.1016663,0
                -77.0270124,-12.1004535,0
                -77.0322882,-12.1007642,0
                -77.0363882,-12.1009174,0
                -77.0418583,-12.099883,0
                -77.0494774,-12.0984417,0
                -77.0499693,-12.098792,0
                -77.0516001,-12.0990437,0
                -77.0545843,-12.0984207,0
                -77.0583933,-12.0966049,0
              </coordinates>
            </LinearRing>
          </outerBoundaryIs>
        </Polygon>
      </Placemark>
      <Placemark>
        <name>ZONA B SAN ISISRO</name>
        <description>MV</description>
        <styleUrl>#poly-E65100-1889-77</styleUrl>
        <Polygon>
          <outerBoundaryIs>
            <LinearRing>
              <tessellate>1</tessellate>
              <coordinates>
                -77.0531899,-12.0929332,0
                -77.055003,-12.0918211,0
                -77.0557541,-12.0933318,0
                -77.0573848,-12.0925555,0
                -77.0589298,-12.096521,0
                -77.0546487,-12.0985676,0
                -77.0510009,-12.0993439,0
                -77.0492105,-12.0985893,0
                -77.0456915,-12.0993446,0
                -77.0361642,-12.101149,0
                -77.0270768,-12.1006004,0
                -77.0226396,-12.0916701,0
                -77.0234121,-12.0910826,0
                -77.0300568,-12.0918301,0
                -77.0300139,-12.0911613,0
                -77.0335786,-12.0906997,0
                -77.0338843,-12.0891208,0
                -77.0432256,-12.0904409,0
                -77.0431287,-12.0912467,0
                -77.0464886,-12.0916998,0
                -77.0465315,-12.0913641,0
                -77.0476151,-12.0915215,0
                -77.0486665,-12.0852479,0
                -77.0531899,-12.0929332,0
              </coordinates>
            </LinearRing>
          </outerBoundaryIs>
        </Polygon>
      </Placemark>
      <Placemark>
        <name>SURQUILLOS ZONA A</name>
        <description>LJ</description>
        <styleUrl>#poly-000000-2684-77</styleUrl>
        <Polygon>
          <outerBoundaryIs>
            <LinearRing>
              <tessellate>1</tessellate>
              <coordinates>
                -77.0271184,-12.1029604,0
                -77.0271087,-12.1044381,0
                -77.0269703,-12.1059997,0
                -77.0265626,-12.1073634,0
                -77.0260691,-12.1086012,0
                -77.0257687,-12.1135421,0
                -77.0258974,-12.1160072,0
                -77.025642,-12.1190478,0
                -77.0237517,-12.1199094,0
                -77.0184767,-12.1195187,0
                -77.018432,-12.1163468,0
                -77.0185589,-12.1112448,0
                -77.0189349,-12.1020149,0
                -77.0271184,-12.1029604,0
              </coordinates>
            </LinearRing>
          </outerBoundaryIs>
        </Polygon>
      </Placemark>
      <Placemark>
        <name>ZONA C SURQUILLO</name>
        <description>XS</description>
        <styleUrl>#poly-006064-3777-128</styleUrl>
        <Polygon>
          <outerBoundaryIs>
            <LinearRing>
              <tessellate>1</tessellate>
              <coordinates>
                -77.0185635,-12.1058027,0
                -77.0185326,-12.113882,0
                -77.0181879,-12.120523,0
                -77.0172974,-12.1204705,0
                -77.0173189,-12.1193586,0
                -77.0138749,-12.1192957,0
                -77.0138418,-12.1188473,0
                -77.0131883,-12.1187817,0
                -77.0132098,-12.1177957,0
                -77.0100139,-12.1156862,0
                -77.0054435,-12.1219591,0
                -77.0037268,-12.1207633,0
                -77.0038985,-12.1202178,0
                -77.0050358,-12.1186863,0
                -77.0068597,-12.1162107,0
                -77.0070313,-12.1147212,0
                -77.0069579,-12.1121133,0
                -77.0096187,-12.1122392,0
                -77.0097552,-12.1102716,0
                -77.0100019,-12.1102716,0
                -77.0100341,-12.1099464,0
                -77.010238,-12.1088449,0
                -77.0106167,-12.107305,0
                -77.0144952,-12.1079764,0
                -77.0164393,-12.1057818,0
                -77.016714,-12.1064208,0
                -77.0165246,-12.105806,0
                -77.0166356,-12.10538,0
                -77.0162527,-12.1035465,0
                -77.0165852,-12.102403,0
                -77.0186634,-12.1021622,0
                -77.0185635,-12.1058027,0
              </coordinates>
            </LinearRing>
          </outerBoundaryIs>
        </Polygon>
      </Placemark>
      <Placemark>
        <name>SURQUILLO ZONA B</name>
        <description>MV</description>
        <styleUrl>#poly-E65100-2287-56</styleUrl>
        <Polygon>
          <outerBoundaryIs>
            <LinearRing>
              <tessellate>1</tessellate>
              <coordinates>
                -77.0067929,-12.1122201,0
                -77.0066991,-12.1161467,0
                -77.0034804,-12.1208881,0
                -77.0055484,-12.1221015,0
                -77.0025872,-12.1263183,0
                -77.002201,-12.1254581,0
                -77.0015572,-12.1250386,0
                -76.9994973,-12.1224162,0
                -76.9985103,-12.1209057,0
                -76.9984459,-12.1200875,0
                -76.997609,-12.1201085,0
                -76.9959783,-12.1162063,0
                -76.9934677,-12.1119054,0
                -76.9934132,-12.1115193,0
                -77.0067929,-12.1122201,0
              </coordinates>
            </LinearRing>
          </outerBoundaryIs>
        </Polygon>
      </Placemark>
      <Placemark>
        <name>ZONA B SAN BORJA</name>
        <description>MV</description>
        <styleUrl>#poly-E65100-2585-99</styleUrl>
        <Polygon>
          <outerBoundaryIs>
            <LinearRing>
              <tessellate>1</tessellate>
              <coordinates>
                -77.010278,-12.1078925,0
                -77.0096187,-12.1122392,0
                -76.9998925,-12.1117109,0
                -76.993541,-12.1114591,0
                -76.9847034,-12.1107459,0
                -76.9849195,-12.1079766,0
                -76.9882255,-12.1078508,0
                -76.9888263,-12.1034029,0
                -76.994571,-12.100843,0
                -77.0006649,-12.100843,0
                -77.004699,-12.1015144,0
                -77.0080464,-12.1005073,0
                -77.0088527,-12.1003347,0
                -77.0103547,-12.1019712,0
                -77.0111057,-12.1037336,0
                -77.010278,-12.1078925,0
              </coordinates>
            </LinearRing>
          </outerBoundaryIs>
        </Polygon>
      </Placemark>
      <Placemark>
        <name>ZONA A SAN BORJA</name>
        <description>LJ </description>
        <styleUrl>#poly-000000-1200-77</styleUrl>
        <Polygon>
          <outerBoundaryIs>
            <LinearRing>
              <tessellate>1</tessellate>
              <coordinates>
                -77.008129,-12.0847494,0
                -77.0076569,-12.0881695,0
                -77.0074209,-12.0899529,0
                -77.010146,-12.0945269,0
                -77.0118626,-12.097758,0
                -77.0120343,-12.1001498,0
                -77.0112547,-12.1037976,0
                -77.0097597,-12.1011569,0
                -77.0088527,-12.1003347,0
                -77.0043953,-12.1016605,0
                -77.0006649,-12.100843,0
                -76.994571,-12.100843,0
                -76.9971771,-12.083164,0
                -76.9977779,-12.0827024,0
                -76.9995374,-12.0837935,0
                -77.008129,-12.0847494,0
              </coordinates>
            </LinearRing>
          </outerBoundaryIs>
        </Polygon>
      </Placemark>
      <Placemark>
        <name>ZONA C SAN BORJA</name>
        <description>XS</description>
        <styleUrl>#poly-006064-3082-115</styleUrl>
        <Polygon>
          <outerBoundaryIs>
            <LinearRing>
              <tessellate>1</tessellate>
              <coordinates>
                -76.9973931,-12.0825922,0
                -76.9958267,-12.081606,0
                -76.9935951,-12.0811444,0
                -76.9934966,-12.0811046,0
                -76.993349,-12.0816711,0
                -76.9929682,-12.0814324,0
                -76.9928501,-12.0817236,0
                -76.9896851,-12.0817419,0
                -76.9875421,-12.0801237,0
                -76.9873205,-12.0799399,0
                -76.9840466,-12.0840608,0
                -76.9816004,-12.0877746,0
                -76.9807421,-12.0924535,0
                -76.9786554,-12.1096551,0
                -76.9794707,-12.1102006,0
                -76.9845348,-12.1107041,0
                -76.9848138,-12.1078508,0
                -76.9856076,-12.1078928,0
                -76.9882255,-12.1078508,0
                -76.9888263,-12.1034029,0
                -76.9934183,-12.1009272,0
                -76.9943624,-12.1005496,0
                -76.9971771,-12.083164,0
                -76.9973931,-12.0825922,0
              </coordinates>
            </LinearRing>
          </outerBoundaryIs>
        </Polygon>
      </Placemark>
      <Placemark>
        <name>SURCO ZONA B</name>
        <description>MV</description>
        <styleUrl>#poly-E65100-2386-77</styleUrl>
        <Polygon>
          <outerBoundaryIs>
            <LinearRing>
              <tessellate>1</tessellate>
              <coordinates>
                -77.0025872,-12.1263183,0
                -76.9854637,-12.1494645,0
                -76.983318,-12.1503035,0
                -76.981258,-12.1422063,0
                -76.9800564,-12.1362486,0
                -76.977224,-12.1287383,0
                -76.9772669,-12.1174935,0
                -76.9788271,-12.1101586,0
                -76.9844951,-12.1110321,0
                -76.9924146,-12.1114268,0
                -76.9934132,-12.1115193,0
                -76.9934677,-12.1119054,0
                -76.997609,-12.1201085,0
                -76.9984459,-12.1200875,0
                -76.9984379,-12.1213413,0
                -77.0017853,-12.1252644,0
                -77.0024076,-12.1258098,0
                -77.0025872,-12.1263183,0
              </coordinates>
            </LinearRing>
          </outerBoundaryIs>
        </Polygon>
      </Placemark>
      <Placemark>
        <name>SURCO ZONA C</name>
        <description>XS</description>
        <styleUrl>#poly-006064-4771-105</styleUrl>
        <Polygon>
          <outerBoundaryIs>
            <LinearRing>
              <tessellate>1</tessellate>
              <coordinates>
                -76.9815038,-12.0877326,0
                -76.9784131,-12.1070271,0
                -76.977469,-12.1150835,0
                -76.9768682,-12.1209158,0
                -76.9770398,-12.1290976,0
                -76.9790721,-12.1340749,0
                -76.9798093,-12.1362908,0
                -76.9803748,-12.1384227,0
                -76.9785616,-12.1385276,0
                -76.9777247,-12.1390153,0
                -76.9774512,-12.1392094,0
                -76.9767162,-12.1397653,0
                -76.9764051,-12.1409086,0
                -76.9763944,-12.1409951,0
                -76.9771588,-12.1412941,0
                -76.9768503,-12.1419286,0
                -76.9763836,-12.1430716,0
                -76.976102,-12.1434571,0
                -76.9753349,-12.1427858,0
                -76.9744766,-12.1421879,0
                -76.9745302,-12.1417054,0
                -76.9748306,-12.1404468,0
                -76.9747019,-12.1392825,0
                -76.9756031,-12.1365764,0
                -76.9765158,-12.134168,0
                -76.9754429,-12.134147,0
                -76.9729967,-12.1353637,0
                -76.9721384,-12.1336435,0
                -76.9702501,-12.13314,0
                -76.964757,-12.1254199,0
                -76.961667,-12.1235738,0
                -76.9593361,-12.1185234,0
                -76.9555167,-12.1154603,0
                -76.9504526,-12.1157541,0
                -76.9442209,-12.1187412,0
                -76.9479975,-12.1128669,0
                -76.9556364,-12.1022089,0
                -76.9607862,-12.0952432,0
                -76.9611296,-12.0910469,0
                -76.9606146,-12.0878577,0
                -76.9567951,-12.0867666,0
                -76.9576534,-12.0835773,0
                -76.9547352,-12.0800523,0
                -76.9578251,-12.0778701,0
                -76.9568809,-12.0761915,0
                -76.95937,-12.0753522,0
                -76.9641765,-12.0771986,0
                -76.9672664,-12.0813952,0
                -76.9701847,-12.0834095,0
                -76.9717296,-12.0752682,0
                -76.9743046,-12.0730021,0
                -76.976622,-12.0799683,0
                -76.981171,-12.0844166,0
                -76.9815038,-12.0877326,0
              </coordinates>
            </LinearRing>
          </outerBoundaryIs>
        </Polygon>
      </Placemark>
      <Placemark>
        <name>ZONA A SURCO</name>
        <description>LJ</description>
        <styleUrl>#poly-000000-1889-77</styleUrl>
        <Polygon>
          <outerBoundaryIs>
            <LinearRing>
              <tessellate>1</tessellate>
              <coordinates>
                -77.0179495,-12.1286296,0
                -77.0178742,-12.135938,0
                -77.0122249,-12.1412415,0
                -77.0143924,-12.1436885,0
                -77.015653,-12.1465021,0
                -77.0183546,-12.152664,0
                -77.0156108,-12.1547374,0
                -77.0160293,-12.1555896,0
                -77.0073994,-12.160325,0
                -77.0077642,-12.1615206,0
                -77.0097169,-12.1612479,0
                -77.010823,-12.1624813,0
                -77.0111116,-12.1627582,0
                -77.011691,-12.1626743,0
                -77.0121201,-12.1635343,0
                -77.0117124,-12.1639119,0
                -77.0144091,-12.1663017,0
                -77.0146237,-12.1672981,0
                -77.0100317,-12.1678329,0
                -77.0082507,-12.1688607,0
                -77.0059548,-12.17121,0
                -77.0047317,-12.1732026,0
                -77.0030365,-12.1740626,0
                -77.0001379,-12.1644997,0
                -76.9980336,-12.1667846,0
                -76.9981852,-12.1673524,0
                -76.9950325,-12.1696482,0
                -76.9946447,-12.1692612,0
                -76.9934446,-12.1704138,0
                -76.9935948,-12.1707074,0
                -76.9919625,-12.1720299,0
                -76.9909348,-12.1723842,0
                -76.9905908,-12.1729308,0
                -76.9901624,-12.173475,0
                -76.9888749,-12.1731813,0
                -76.9881002,-12.171967,0
                -76.9869959,-12.170666,0
                -76.9842608,-12.167687,0
                -76.9844324,-12.1670367,0
                -76.9840462,-12.1651069,0
                -76.9837013,-12.1639124,0
                -76.9839159,-12.1627168,0
                -76.9841511,-12.1625296,0
                -76.9843442,-12.1614389,0
                -76.9843181,-12.1612187,0
                -76.984715,-12.160904,0
                -76.9849806,-12.1608306,0
                -76.9848386,-12.1566966,0
                -76.9848986,-12.1562735,0
                -76.9840081,-12.1557281,0
                -76.9837657,-12.1539696,0
                -76.983868,-12.1517802,0
                -76.9835297,-12.1503616,0
                -76.9853106,-12.1495435,0
                -76.9958249,-12.1357402,0
                -77.0007122,-12.1290822,0
                -77.0027863,-12.1321143,0
                -77.0033925,-12.1318679,0
                -77.0034392,-12.1314478,0
                -77.0051375,-12.1316285,0
                -77.0084849,-12.1305376,0
                -77.0112085,-12.1306038,0
                -77.0124374,-12.1303804,0
                -77.0122148,-12.1292554,0
                -77.0156502,-12.1295549,0
                -77.0167553,-12.1286738,0
                -77.0179495,-12.1286296,0
              </coordinates>
            </LinearRing>
          </outerBoundaryIs>
        </Polygon>
      </Placemark>
      <Placemark>
        <name>ZONA B CHORRILLOS</name>
        <description>MV</description>
        <styleUrl>#poly-E65100-3479-77</styleUrl>
        <Polygon>
          <outerBoundaryIs>
            <LinearRing>
              <tessellate>1</tessellate>
              <coordinates>
                -76.9757805,-12.2311262,0
                -76.972563,-12.2246353,0
                -77.0064221,-12.190461,0
                -77.0077064,-12.1888225,0
                -77.007671,-12.1847963,0
                -77.0078856,-12.1841251,0
                -77.0110613,-12.1832022,0
                -77.021611,-12.1725462,0
                -77.0242718,-12.170197,0
                -77.0252589,-12.1693999,0
                -77.0263317,-12.170197,0
                -77.0266535,-12.1706375,0
                -77.0270183,-12.171015,0
                -77.0282522,-12.1720323,0
                -77.0308593,-12.1741194,0
                -77.0334879,-12.1742396,0
                -77.0334879,-12.1754513,0
                -77.0332948,-12.1760596,0
                -77.0333376,-12.1762903,0
                -77.033284,-12.1767412,0
                -77.0351723,-12.1799294,0
                -77.0394638,-12.1813556,0
                -77.0391205,-12.1872285,0
                -77.0395496,-12.1879835,0
                -77.0385197,-12.1909199,0
                -77.0403221,-12.1932689,0
                -77.0386055,-12.1942756,0
                -77.0371721,-12.1955034,0
                -77.0344685,-12.1985655,0
                -77.034211,-12.2007047,0
                -77.0346401,-12.2019631,0
                -77.0365284,-12.2023826,0
                -77.0366142,-12.2031376,0
                -77.0381592,-12.2057382,0
                -77.0354984,-12.2066191,0
                -77.0312069,-12.2076257,0
                -76.9757805,-12.2311262,0
              </coordinates>
            </LinearRing>
          </outerBoundaryIs>
        </Polygon>
      </Placemark>
      <Placemark>
        <name>ZONA C CHORRILLOS</name>
        <description>XS</description>
        <styleUrl>#poly-006064-3082-156</styleUrl>
        <Polygon>
          <outerBoundaryIs>
            <LinearRing>
              <tessellate>1</tessellate>
              <coordinates>
                -76.9812749,-12.1722887,0
                -76.9829955,-12.1721325,0
                -76.9841971,-12.1681472,0
                -76.9888749,-12.1731813,0
                -76.9901624,-12.173475,0
                -76.9909348,-12.1723842,0
                -76.9919219,-12.1723003,0
                -76.991879,-12.1737267,0
                -76.9944968,-12.1763276,0
                -77.0002475,-12.1837526,0
                -77.0074572,-12.1851788,0
                -77.0077064,-12.1888225,0
                -76.977159,-12.2191969,0
                -76.9730622,-12.1962842,0
                -76.9766725,-12.1955973,0
                -76.976769,-12.1957704,0
                -76.9768388,-12.195676,0
                -76.9777132,-12.194837,0
                -76.9777615,-12.1946902,0
                -76.9783485,-12.1938948,0
                -76.9791424,-12.1927517,0
                -76.9797486,-12.1913517,0
                -76.9800222,-12.190539,0
                -76.9800651,-12.1890603,0
                -76.9801312,-12.1883796,0
                -76.9804745,-12.1881856,0
                -76.9806226,-12.1876898,0
                -76.9835389,-12.1883515,0
                -76.9838283,-12.1855238,0
                -76.9821117,-12.1851882,0
                -76.9825623,-12.1818533,0
                -76.9831632,-12.1795041,0
                -76.9826053,-12.1763579,0
                -76.9810603,-12.1742604,0
                -76.9812749,-12.1722887,0
              </coordinates>
            </LinearRing>
          </outerBoundaryIs>
        </Polygon>
      </Placemark>
      <Placemark>
        <name>ZONA A CHORRILLOS</name>
        <description>LJ</description>
        <styleUrl>#poly-000000-2287-77</styleUrl>
        <Polygon>
          <outerBoundaryIs>
            <LinearRing>
              <tessellate>1</tessellate>
              <coordinates>
                -77.0245298,-12.1567793,0
                -77.0266635,-12.1574549,0
                -77.0262987,-12.1581681,0
                -77.0265991,-12.1587344,0
                -77.0274789,-12.1589652,0
                -77.0278437,-12.159133,0
                -77.0276076,-12.1594266,0
                -77.027672,-12.1603286,0
                -77.0274145,-12.1607272,0
                -77.0274789,-12.1632023,0
                -77.0306224,-12.1665637,0
                -77.0387012,-12.1673241,0
                -77.038079,-12.1690965,0
                -77.0351184,-12.1725672,0
                -77.0334879,-12.1742396,0
                -77.0309562,-12.1741081,0
                -77.0253558,-12.1693886,0
                -77.0219352,-12.1721995,0
                -77.0186005,-12.1754718,0
                -77.0111582,-12.1831909,0
                -77.0079825,-12.1841138,0
                -77.0077679,-12.184785,0
                -77.001116,-12.1836104,0
                -76.9988415,-12.1810935,0
                -76.9919759,-12.1737154,0
                -76.9920594,-12.1720186,0
                -76.9936791,-12.1710376,0
                -76.9935415,-12.1704025,0
                -76.9947416,-12.1692499,0
                -76.9951294,-12.1696369,0
                -76.9983998,-12.1676815,0
                -76.9981305,-12.1667733,0
                -77.0002348,-12.1644884,0
                -77.0031334,-12.1740513,0
                -77.0048286,-12.1731913,0
                -77.0057083,-12.1718776,0
                -77.0079399,-12.1692347,0
                -77.0100121,-12.1679146,0
                -77.0147206,-12.1672868,0
                -77.0145718,-12.1663728,0
                -77.0118093,-12.1639006,0
                -77.012217,-12.163523,0
                -77.0117879,-12.162663,0
                -77.011176,-12.1627582,0
                -77.0097813,-12.1612479,0
                -77.0078611,-12.1615093,0
                -77.0074963,-12.1603137,0
                -77.0189079,-12.1541782,0
                -77.0196803,-12.1547655,0
                -77.0245298,-12.1567793,0
              </coordinates>
            </LinearRing>
          </outerBoundaryIs>
        </Polygon>
      </Placemark>
      <Placemark>
        <name>ZONA C LA MOLINA</name>
        <description>XS</description>
        <styleUrl>#poly-006064-3380-130</styleUrl>
        <Polygon>
          <outerBoundaryIs>
            <LinearRing>
              <tessellate>1</tessellate>
              <coordinates>
                -76.9548318,-12.0800943,0
                -76.95775,-12.0836193,0
                -76.9568917,-12.0868086,0
                -76.9607112,-12.0878997,0
                -76.9608828,-12.0952852,0
                -76.9443175,-12.1187832,0
                -76.9397921,-12.1171796,0
                -76.9365306,-12.1163404,0
                -76.9346423,-12.1129837,0
                -76.9368739,-12.1064378,0
                -76.9325824,-12.1042559,0
                -76.9349856,-12.1012346,0
                -76.9416804,-12.0973741,0
                -76.943912,-12.0899887,0
                -76.943912,-12.0878065,0
                -76.9464011,-12.0880583,0
                -76.9486327,-12.0848271,0
                -76.9521518,-12.0800851,0
                -76.9548318,-12.0800943,0
              </coordinates>
            </LinearRing>
          </outerBoundaryIs>
        </Polygon>
      </Placemark>
      <Placemark>
        <name>ZONA B LA MOLINA</name>
        <description>MV</description>
        <styleUrl>#poly-E65100-2783-99</styleUrl>
        <Polygon>
          <outerBoundaryIs>
            <LinearRing>
              <tessellate>1</tessellate>
              <coordinates>
                -76.9401436,-12.08693,0
                -76.9341354,-12.0914621,0
                -76.9254666,-12.1001063,0
                -76.8919926,-12.10103,0
                -76.8931084,-12.0879371,0
                -76.888731,-12.0922594,0
                -76.8851905,-12.0899095,0
                -76.8817787,-12.0840764,0
                -76.8896751,-12.0829014,0
                -76.892765,-12.0775299,0
                -76.9046097,-12.0758513,0
                -76.9078712,-12.0731655,0
                -76.9130211,-12.0704796,0
                -76.9179993,-12.075012,0
                -76.9255524,-12.0788728,0
                -76.9358521,-12.0745084,0
                -76.9370537,-12.0756835,0
                -76.9380837,-12.0766906,0
                -76.9401436,-12.08693,0
              </coordinates>
            </LinearRing>
          </outerBoundaryIs>
        </Polygon>
      </Placemark>
      <Placemark>
        <name>ZONA A LA MOLINA</name>
        <description>LJ</description>
        <styleUrl>#poly-000000-1200-77</styleUrl>
        <Polygon>
          <outerBoundaryIs>
            <LinearRing>
              <tessellate>1</tessellate>
              <coordinates>
                -76.9434678,-12.058447,0
                -76.9438111,-12.0574817,0
                -76.9527375,-12.0609231,0
                -76.9566857,-12.06235,0
                -76.9612347,-12.0626018,0
                -76.9706761,-12.0676379,0
                -76.973766,-12.0733454,0
                -76.9712769,-12.0775419,0
                -76.9702813,-12.0834515,0
                -76.963638,-12.0767026,0
                -76.9594666,-12.0753942,0
                -76.9563424,-12.0765348,0
                -76.9579217,-12.0779121,0
                -76.9548318,-12.0800943,0
                -76.9521518,-12.0800851,0
                -76.9501055,-12.0825052,0
                -76.9463068,-12.0876324,0
                -76.9433131,-12.0875313,0
                -76.9402335,-12.0856677,0
                -76.9393316,-12.0830315,0
                -76.9390305,-12.0790105,0
                -76.9370537,-12.0756835,0
                -76.936258,-12.073765,0
                -76.9388758,-12.0657914,0
                -76.9434678,-12.058447,0
              </coordinates>
            </LinearRing>
          </outerBoundaryIs>
        </Polygon>
      </Placemark>
      <Placemark>
        <name>ZONA C SJM</name>
        <description>XS</description>
        <styleUrl>#poly-006064-3082-140</styleUrl>
        <Polygon>
          <outerBoundaryIs>
            <LinearRing>
              <tessellate>1</tessellate>
              <coordinates>
                -76.983318,-12.1503035,0
                -76.9848386,-12.1566966,0
                -76.984715,-12.160904,0
                -76.9837013,-12.1639124,0
                -76.9841971,-12.1681472,0
                -76.9829955,-12.1721325,0
                -76.9802529,-12.1730659,0
                -76.971069,-12.1708006,0
                -76.9652325,-12.1694582,0
                -76.9616276,-12.1699616,0
                -76.9570786,-12.170423,0
                -76.9560486,-12.1689967,0
                -76.9577653,-12.1679479,0
                -76.9569928,-12.1655986,0
                -76.9579369,-12.1642562,0
                -76.9568211,-12.1609,0
                -76.9567592,-12.160195,0
                -76.9560511,-12.1594294,0
                -76.9609816,-12.1554922,0
                -76.9740121,-12.1434668,0
                -76.9745732,-12.1422299,0
                -76.9761986,-12.1434991,0
                -76.9772339,-12.1412521,0
                -76.9765017,-12.1409506,0
                -76.9767968,-12.1398598,0
                -76.9779336,-12.1389704,0
                -76.9785235,-12.1386097,0
                -76.9789202,-12.1385846,0
                -76.9804714,-12.1384647,0
                -76.983318,-12.1503035,0
              </coordinates>
            </LinearRing>
          </outerBoundaryIs>
        </Polygon>
      </Placemark>
      <Placemark>
        <name>ZONA B SJM</name>
        <description>MV</description>
        <styleUrl>#poly-E65100-2684-102</styleUrl>
        <Polygon>
          <outerBoundaryIs>
            <LinearRing>
              <tessellate>1</tessellate>
              <coordinates>
                -76.9730622,-12.1962842,0
                -76.9721621,-12.1923663,0
                -76.9677847,-12.1932891,0
                -76.9611758,-12.1926599,0
                -76.9570988,-12.1908562,0
                -76.9579142,-12.1892622,0
                -76.9558543,-12.1880457,0
                -76.9547814,-12.186955,0
                -76.9533652,-12.1854449,0
                -76.9551462,-12.1844591,0
                -76.955222,-12.1803934,0
                -76.9547928,-12.1779184,0
                -76.9554365,-12.1764501,0
                -76.9551361,-12.1746882,0
                -76.9551361,-12.172339,0
                -76.9558228,-12.1712483,0
                -76.9561232,-12.1701995,0
                -76.9571215,-12.1704649,0
                -76.9652754,-12.1695001,0
                -76.9802958,-12.1731078,0
                -76.9814861,-12.1727585,0
                -76.9811032,-12.1743023,0
                -76.9826449,-12.1767018,0
                -76.9831169,-12.1792188,0
                -76.9821546,-12.1852301,0
                -76.9838712,-12.1855657,0
                -76.9835818,-12.1883934,0
                -76.9811428,-12.1877763,0
                -76.9806226,-12.1876898,0
                -76.9804745,-12.1881856,0
                -76.9801312,-12.1883796,0
                -76.9800222,-12.190539,0
                -76.9788838,-12.1929843,0
                -76.9777996,-12.1945215,0
                -76.9767154,-12.1956392,0
                -76.9730622,-12.1962842,0
              </coordinates>
            </LinearRing>
          </outerBoundaryIs>
        </Polygon>
      </Placemark>
      <Placemark>
        <name>ZONA AVVMT </name>
        <description>LJ</description>
        <styleUrl>#poly-000000-1200-77</styleUrl>
        <Polygon>
          <outerBoundaryIs>
            <LinearRing>
              <tessellate>1</tessellate>
              <coordinates>
                -76.9318751,-12.140496,0
                -76.9313601,-12.1336152,0
                -76.9235869,-12.1211879,0
                -76.9329909,-12.120986,0
                -76.9344909,-12.1218222,0
                -76.9360016,-12.1230886,0
                -76.9409029,-12.1222472,0
                -76.9425538,-12.1225443,0
                -76.9453207,-12.1247715,0
                -76.9455353,-12.127163,0
                -76.9464795,-12.1293868,0
                -76.9468228,-12.1316525,0
                -76.9508139,-12.1346733,0
                -76.9531314,-12.1376523,0
                -76.9556847,-12.1424981,0
                -76.9559636,-12.1449945,0
                -76.9590231,-12.1531197,0
                -76.9587549,-12.1535497,0
                -76.9588037,-12.1538344,0
                -76.9580691,-12.1547843,0
                -76.9609811,-12.1552121,0
                -76.9560511,-12.1594294,0
                -76.9567592,-12.160195,0
                -76.9568211,-12.1609,0
                -76.9579369,-12.1642562,0
                -76.9569928,-12.1655986,0
                -76.9577653,-12.1679479,0
                -76.9560486,-12.1689967,0
                -76.9486119,-12.1707861,0
                -76.9403722,-12.1748133,0
                -76.9308673,-12.1704924,0
                -76.9257174,-12.1642836,0
                -76.9165115,-12.1564385,0
                -76.9143657,-12.1490547,0
                -76.9144515,-12.1370556,0
                -76.9230346,-12.1378108,0
                -76.9322361,-12.1437388,0
                -76.9318751,-12.140496,0
              </coordinates>
            </LinearRing>
          </outerBoundaryIs>
        </Polygon>
      </Placemark>
      <Placemark>
        <name>ZONA B VMT</name>
        <description>MV</description>
        <styleUrl>#poly-E65100-2783-120</styleUrl>
        <Polygon>
          <outerBoundaryIs>
            <LinearRing>
              <tessellate>1</tessellate>
              <coordinates>
                -76.9429694,-12.1830773,0
                -76.9354163,-12.1944871,0
                -76.933528,-12.1928093,0
                -76.9229709,-12.1870205,0
                -76.9192801,-12.1851747,0
                -76.919881,-12.1780434,0
                -76.9149028,-12.1753586,0
                -76.9121562,-12.1662973,0
                -76.9097529,-12.1582425,0
                -76.9165115,-12.1564385,0
                -76.9257174,-12.1642836,0
                -76.9308673,-12.1704924,0
                -76.9403722,-12.1748133,0
                -76.9486119,-12.1707861,0
                -76.9560486,-12.1689967,0
                -76.9570786,-12.170423,0
                -76.9560803,-12.1701576,0
                -76.9557799,-12.1712064,0
                -76.9550932,-12.1722971,0
                -76.9550932,-12.1746463,0
                -76.9553936,-12.1764082,0
                -76.9547499,-12.1778765,0
                -76.9551791,-12.1803515,0
                -76.9551033,-12.1844172,0
                -76.9533223,-12.185403,0
                -76.9539987,-12.1873561,0
                -76.9524966,-12.1879014,0
                -76.9501363,-12.1867268,0
                -76.9491921,-12.1851747,0
                -76.9464885,-12.1846294,0
                -76.9429694,-12.1830773,0
              </coordinates>
            </LinearRing>
          </outerBoundaryIs>
        </Polygon>
      </Placemark>
      <Placemark>
        <name>ZONA C VMT</name>
        <description>XS</description>
        <styleUrl>#poly-006064-2585-166</styleUrl>
        <Polygon>
          <outerBoundaryIs>
            <LinearRing>
              <tessellate>1</tessellate>
              <coordinates>
                -76.9341764,-12.1964813,0
                -76.9279968,-12.2065273,0
                -76.9222458,-12.2154825,0
                -76.918641,-12.2267232,0
                -76.9096288,-12.2305818,0
                -76.9059381,-12.2164892,0
                -76.9062814,-12.208268,0
                -76.908513,-12.2015569,0
                -76.906453,-12.1904829,0
                -76.9062814,-12.1851136,0
                -76.9149028,-12.1753586,0
                -76.919881,-12.1780434,0
                -76.9192801,-12.1851747,0
                -76.9255075,-12.188805,0
                -76.933528,-12.1928093,0
                -76.9354163,-12.1944871,0
                -76.9341764,-12.1964813,0
              </coordinates>
            </LinearRing>
          </outerBoundaryIs>
        </Polygon>
      </Placemark>
      <Placemark>
        <name>ZONA A SJM</name>
        <description>LJ</description>
        <styleUrl>#poly-000000-1200-77</styleUrl>
        <MultiGeometry>
          <Polygon>
            <outerBoundaryIs>
              <LinearRing>
                <tessellate>1</tessellate>
                <coordinates>
                  -76.9743988,-12.1423037,0
                  -76.9743881,-12.1423561,0
                  -76.9745194,-12.141527,0
                  -76.9743988,-12.1423037,0
                </coordinates>
              </LinearRing>
            </outerBoundaryIs>
          </Polygon>
          <Polygon>
            <outerBoundaryIs>
              <LinearRing>
                <tessellate>1</tessellate>
                <coordinates>
                  -76.9745732,-12.1422299,0
                  -76.9739746,-12.1434564,0
                  -76.9694416,-12.1476309,0
                  -76.9612663,-12.1551407,0
                  -76.9584281,-12.1546735,0
                  -76.9588037,-12.1538344,0
                  -76.9587549,-12.1535497,0
                  -76.9590231,-12.1531197,0
                  -76.9587495,-12.1523068,0
                  -76.9572259,-12.1482425,0
                  -76.9559636,-12.1449945,0
                  -76.9556847,-12.1424981,0
                  -76.9550839,-12.140715,0
                  -76.9531314,-12.1376523,0
                  -76.9508139,-12.1346733,0
                  -76.9484106,-12.1328272,0
                  -76.9468228,-12.1316525,0
                  -76.9464795,-12.1293868,0
                  -76.9455353,-12.127163,0
                  -76.9453207,-12.1247715,0
                  -76.9425538,-12.1225443,0
                  -76.9409029,-12.1222472,0
                  -76.940345,-12.120401,0
                  -76.944178,-12.1187517,0
                  -76.9504097,-12.1157646,0
                  -76.9554738,-12.1154708,0
                  -76.9592932,-12.1185339,0
                  -76.9616241,-12.1235843,0
                  -76.9647141,-12.1254304,0
                  -76.9700852,-12.1331771,0
                  -76.972031,-12.1336749,0
                  -76.9724548,-12.1344669,0
                  -76.9729376,-12.1354109,0
                  -76.9754053,-12.1342099,0
                  -76.9764031,-12.1342256,0
                  -76.9746591,-12.139293,0
                  -76.9747878,-12.1404154,0
                  -76.9746052,-12.1412124,0
                  -76.9744766,-12.1421879,0
                  -76.9745732,-12.1422299,0
                </coordinates>
              </LinearRing>
            </outerBoundaryIs>
          </Polygon>
        </MultiGeometry>
      </Placemark>
    </Folder>
  </Document>
</kml>
