{"type":"FeatureCollection","features":[{"type":"Feature","geometry":{"type":"Polygon","coordinates":[[[-77.041104,-12.118989,0],[-77.033553,-12.119073,0],[-77.026046,-12.119283,0],[-77.026217,-12.117521,0],[-77.026088,-12.112821,0],[-77.026174,-12.108793,0],[-77.027204,-12.106401,0],[-77.027419,-12.102834,0],[-77.031367,-12.10359,0],[-77.03656,-12.109926,0],[-77.036659,-12.110043,0],[-77.036986,-12.109938,0],[-77.037244,-12.110043,0],[-77.03822,-12.108968,0],[-77.039068,-12.109796,0],[-77.040459,-12.108374,0],[-77.043168,-12.110926,0],[-77.043463,-12.11068,0],[-77.044107,-12.110459,0],[-77.046177,-12.110533,0],[-77.046671,-12.110942,0],[-77.049332,-12.108319,0],[-77.051327,-12.110271,0],[-77.053089,-12.108697,0],[-77.0534,-12.109494,0],[-77.05362,-12.109657,0],[-77.054294,-12.109707,0],[-77.054535,-12.109817,0],[-77.054803,-12.109985,0],[-77.056162,-12.11162,0],[-77.052315,-12.11406,0],[-77.050705,-12.115969,0],[-77.049654,-12.117311,0],[-77.046886,-12.118822,0],[-77.046113,-12.119724,0],[-77.042508,-12.119472,0],[-77.04238,-12.118906,0],[-77.041104,-12.118989,0]]]},"properties":{"name":"ZONA A MIRAFLORES","description":"LJ","styleUrl":"#poly-000000-1200-77","fill-opacity":0.30196078431372547,"fill":"#000000","stroke-opacity":1,"stroke":"#000000","stroke-width":1.2}},{"type":"Feature","geometry":{"type":"Polygon","coordinates":[[[-77.045769,-12.120034,0],[-77.04431,-12.122698,0],[-77.04077,-12.124523,0],[-77.037015,-12.128237,0],[-77.035341,-12.130712,0],[-77.032551,-12.13239,0],[-77.030019,-12.134572,0],[-77.028131,-12.139565,0],[-77.025384,-12.136544,0],[-77.021007,-12.134153,0],[-77.023839,-12.126055,0],[-77.025771,-12.119467,0],[-77.04238,-12.118906,0],[-77.042508,-12.119472,0],[-77.045769,-12.120034,0]]]},"properties":{"name":"ZONA B MIRAFLORES","description":"MV","styleUrl":"#poly-E65100-2485-77","fill-opacity":0.30196078431372547,"fill":"#e65100","stroke-opacity":1,"stroke":"#e65100","stroke-width":2.485}},{"type":"Feature","geometry":{"type":"Polygon","coordinates":[[[-77.02579,-12.11922,0],[-77.025767,-12.119343,0],[-77.021776,-12.132439,0],[-77.021063,-12.133073,0],[-77.019473,-12.130557,0],[-77.019087,-12.13126,0],[-77.017971,-12.131254,0],[-77.017949,-12.12863,0],[-77.017742,-12.128632,0],[-77.016755,-12.128674,0],[-77.016305,-12.12903,0],[-77.01565,-12.129555,0],[-77.013826,-12.129502,0],[-77.012387,-12.128889,0],[-77.012215,-12.129255,0],[-77.012437,-12.13038,0],[-77.011208,-12.130604,0],[-77.008021,-12.130336,0],[-77.004599,-12.131569,0],[-77.003439,-12.131448,0],[-77.003392,-12.131868,0],[-77.002786,-12.132114,0],[-77.001279,-12.129397,0],[-77.001322,-12.128474,0],[-77.00395,-12.124973,0],[-77.010184,-12.115677,0],[-77.01321,-12.117796,0],[-77.013188,-12.118782,0],[-77.013842,-12.118847,0],[-77.013875,-12.119296,0],[-77.017319,-12.119359,0],[-77.017297,-12.12047,0],[-77.018188,-12.120523,0],[-77.018477,-12.119519,0],[-77.023798,-12.120064,0],[-77.025007,-12.119282,0],[-77.02579,-12.11922,0]]]},"properties":{"name":"ZONA C MIRAFLORES","description":"XS","styleUrl":"#poly-006064-2982-125","fill-opacity":0.49019607843137253,"fill":"#006064","stroke-opacity":1,"stroke":"#006064","stroke-width":2.982}},{"type":"Feature","geometry":{"type":"Polygon","coordinates":[[[-77.021197,-12.090655,0],[-77.022356,-12.091075,0],[-77.024459,-12.095565,0],[-77.026476,-12.100265,0],[-77.026732,-12.102918,0],[-77.022711,-12.102393,0],[-77.018935,-12.102015,0],[-77.016532,-12.10234,0],[-77.016596,-12.103337,0],[-77.016156,-12.103525,0],[-77.01641,-12.104153,0],[-77.016636,-12.10538,0],[-77.016142,-12.106162,0],[-77.015386,-12.107195,0],[-77.014962,-12.107829,0],[-77.014495,-12.107976,0],[-77.010617,-12.107305,0],[-77.010488,-12.107289,0],[-77.011255,-12.103798,0],[-77.012081,-12.099877,0],[-77.011716,-12.097422,0],[-77.008648,-12.09182,0],[-77.007467,-12.089743,0],[-77.007618,-12.088694,0],[-77.021197,-12.090655,0]]]},"properties":{"name":"ZONA C SAN ISIDRO","description":"XS","styleUrl":"#poly-006064-2485-168","fill-opacity":0.6588235294117647,"fill":"#006064","stroke-opacity":1,"stroke":"#006064","stroke-width":2.485}},{"type":"Feature","geometry":{"type":"Polygon","coordinates":[[[-77.058393,-12.096605,0],[-77.059072,-12.098098,0],[-77.059453,-12.099163,0],[-77.059871,-12.099866,0],[-77.060139,-12.099782,0],[-77.060654,-12.100726,0],[-77.060654,-12.10101,0],[-77.060552,-12.101163,0],[-77.060665,-12.101976,0],[-77.060461,-12.102888,0],[-77.060686,-12.103591,0],[-77.060204,-12.104252,0],[-77.060579,-12.106822,0],[-77.058015,-12.108688,0],[-77.055805,-12.110157,0],[-77.053552,-12.109213,0],[-77.053209,-12.108458,0],[-77.051263,-12.110124,0],[-77.049364,-12.108298,0],[-77.047441,-12.110032,0],[-77.047253,-12.110251,0],[-77.046692,-12.110879,0],[-77.046143,-12.110487,0],[-77.044426,-12.110461,0],[-77.044271,-12.11044,0],[-77.043828,-12.110519,0],[-77.043612,-12.110611,0],[-77.043348,-12.110718,0],[-77.043183,-12.110901,0],[-77.04305,-12.110779,0],[-77.040491,-12.108322,0],[-77.039069,-12.109733,0],[-77.038188,-12.108915,0],[-77.03719,-12.109969,0],[-77.037009,-12.109924,0],[-77.036664,-12.109991,0],[-77.03158,-12.103555,0],[-77.027354,-12.102688,0],[-77.027074,-12.101666,0],[-77.027012,-12.100453,0],[-77.032288,-12.100764,0],[-77.036388,-12.100917,0],[-77.041858,-12.099883,0],[-77.049477,-12.098442,0],[-77.049969,-12.098792,0],[-77.0516,-12.099044,0],[-77.054584,-12.098421,0],[-77.058393,-12.096605,0]]]},"properties":{"name":"ZONA A SAN ISIDRO","description":"LJ","styleUrl":"#poly-000000-1200-77","fill-opacity":0.30196078431372547,"fill":"#000000","stroke-opacity":1,"stroke":"#000000","stroke-width":1.2}},{"type":"Feature","geometry":{"type":"Polygon","coordinates":[[[-77.05319,-12.092933,0],[-77.055003,-12.091821,0],[-77.055754,-12.093332,0],[-77.057385,-12.092555,0],[-77.05893,-12.096521,0],[-77.054649,-12.098568,0],[-77.051001,-12.099344,0],[-77.04921,-12.098589,0],[-77.045691,-12.099345,0],[-77.036164,-12.101149,0],[-77.027077,-12.1006,0],[-77.02264,-12.09167,0],[-77.023412,-12.091083,0],[-77.030057,-12.09183,0],[-77.030014,-12.091161,0],[-77.033579,-12.0907,0],[-77.033884,-12.089121,0],[-77.043226,-12.090441,0],[-77.043129,-12.091247,0],[-77.046489,-12.0917,0],[-77.046531,-12.091364,0],[-77.047615,-12.091521,0],[-77.048666,-12.085248,0],[-77.05319,-12.092933,0]]]},"properties":{"name":"ZONA B SAN ISISRO","description":"MV","styleUrl":"#poly-E65100-1889-77","fill-opacity":0.30196078431372547,"fill":"#e65100","stroke-opacity":1,"stroke":"#e65100","stroke-width":1.889}},{"type":"Feature","geometry":{"type":"Polygon","coordinates":[[[-77.027118,-12.10296,0],[-77.027109,-12.104438,0],[-77.02697,-12.106,0],[-77.026563,-12.107363,0],[-77.026069,-12.108601,0],[-77.025769,-12.113542,0],[-77.025897,-12.116007,0],[-77.025642,-12.119048,0],[-77.023752,-12.119909,0],[-77.018477,-12.119519,0],[-77.018432,-12.116347,0],[-77.018559,-12.111245,0],[-77.018935,-12.102015,0],[-77.027118,-12.10296,0]]]},"properties":{"name":"SURQUILLOS ZONA A","description":"LJ","styleUrl":"#poly-000000-2684-77","fill-opacity":0.30196078431372547,"fill":"#000000","stroke-opacity":1,"stroke":"#000000","stroke-width":2.684}},{"type":"Feature","geometry":{"type":"Polygon","coordinates":[[[-77.018563,-12.105803,0],[-77.018533,-12.113882,0],[-77.018188,-12.120523,0],[-77.017297,-12.12047,0],[-77.017319,-12.119359,0],[-77.013875,-12.119296,0],[-77.013842,-12.118847,0],[-77.013188,-12.118782,0],[-77.01321,-12.117796,0],[-77.010014,-12.115686,0],[-77.005443,-12.121959,0],[-77.003727,-12.120763,0],[-77.003898,-12.120218,0],[-77.005036,-12.118686,0],[-77.00686,-12.116211,0],[-77.007031,-12.114721,0],[-77.006958,-12.112113,0],[-77.009619,-12.112239,0],[-77.009755,-12.110272,0],[-77.010002,-12.110272,0],[-77.010034,-12.109946,0],[-77.010238,-12.108845,0],[-77.010617,-12.107305,0],[-77.014495,-12.107976,0],[-77.016439,-12.105782,0],[-77.016714,-12.106421,0],[-77.016525,-12.105806,0],[-77.016636,-12.10538,0],[-77.016253,-12.103546,0],[-77.016585,-12.102403,0],[-77.018663,-12.102162,0],[-77.018563,-12.105803,0]]]},"properties":{"name":"ZONA C SURQUILLO","description":"XS","styleUrl":"#poly-006064-3777-128","fill-opacity":0.5019607843137255,"fill":"#006064","stroke-opacity":1,"stroke":"#006064","stroke-width":3.777}},{"type":"Feature","geometry":{"type":"Polygon","coordinates":[[[-77.006793,-12.11222,0],[-77.006699,-12.116147,0],[-77.00348,-12.120888,0],[-77.005548,-12.122101,0],[-77.002587,-12.126318,0],[-77.002201,-12.125458,0],[-77.001557,-12.125039,0],[-76.999497,-12.122416,0],[-76.99851,-12.120906,0],[-76.998446,-12.120087,0],[-76.997609,-12.120108,0],[-76.995978,-12.116206,0],[-76.993468,-12.111905,0],[-76.993413,-12.111519,0],[-77.006793,-12.11222,0]]]},"properties":{"name":"SURQUILLO ZONA B","description":"MV","styleUrl":"#poly-E65100-2287-56","fill-opacity":0.2196078431372549,"fill":"#e65100","stroke-opacity":1,"stroke":"#e65100","stroke-width":2.287}},{"type":"Feature","geometry":{"type":"Polygon","coordinates":[[[-77.010278,-12.107892,0],[-77.009619,-12.112239,0],[-76.999892,-12.111711,0],[-76.993541,-12.111459,0],[-76.984703,-12.110746,0],[-76.984919,-12.107977,0],[-76.988225,-12.107851,0],[-76.988826,-12.103403,0],[-76.994571,-12.100843,0],[-77.000665,-12.100843,0],[-77.004699,-12.101514,0],[-77.008046,-12.100507,0],[-77.008853,-12.100335,0],[-77.010355,-12.101971,0],[-77.011106,-12.103734,0],[-77.010278,-12.107892,0]]]},"properties":{"name":"ZONA B SAN BORJA","description":"MV","styleUrl":"#poly-E65100-2585-99","fill-opacity":0.38823529411764707,"fill":"#e65100","stroke-opacity":1,"stroke":"#e65100","stroke-width":2.585}},{"type":"Feature","geometry":{"type":"Polygon","coordinates":[[[-77.008129,-12.084749,0],[-77.007657,-12.088169,0],[-77.007421,-12.089953,0],[-77.010146,-12.094527,0],[-77.011863,-12.097758,0],[-77.012034,-12.10015,0],[-77.011255,-12.103798,0],[-77.00976,-12.101157,0],[-77.008853,-12.100335,0],[-77.004395,-12.10166,0],[-77.000665,-12.100843,0],[-76.994571,-12.100843,0],[-76.997177,-12.083164,0],[-76.997778,-12.082702,0],[-76.999537,-12.083793,0],[-77.008129,-12.084749,0]]]},"properties":{"name":"ZONA A SAN BORJA","description":"LJ","styleUrl":"#poly-000000-1200-77","fill-opacity":0.30196078431372547,"fill":"#000000","stroke-opacity":1,"stroke":"#000000","stroke-width":1.2}},{"type":"Feature","geometry":{"type":"Polygon","coordinates":[[[-76.997393,-12.082592,0],[-76.997177,-12.083164,0],[-76.994362,-12.10055,0],[-76.993418,-12.100927,0],[-76.988826,-12.103403,0],[-76.988225,-12.107851,0],[-76.985608,-12.107893,0],[-76.984814,-12.107851,0],[-76.984535,-12.110704,0],[-76.979471,-12.110201,0],[-76.978655,-12.109655,0],[-76.980742,-12.092453,0],[-76.9816,-12.087775,0],[-76.984047,-12.084061,0],[-76.98732,-12.07994,0],[-76.987542,-12.080124,0],[-76.989685,-12.081742,0],[-76.99285,-12.081724,0],[-76.992968,-12.081432,0],[-76.993349,-12.081671,0],[-76.993497,-12.081105,0],[-76.993595,-12.081144,0],[-76.995827,-12.081606,0],[-76.997393,-12.082592,0]]]},"properties":{"name":"ZONA C SAN BORJA","description":"XS","styleUrl":"#poly-006064-3082-115","fill-opacity":0.45098039215686275,"fill":"#006064","stroke-opacity":1,"stroke":"#006064","stroke-width":3.082}},{"type":"Feature","geometry":{"type":"Polygon","coordinates":[[[-77.002587,-12.126318,0],[-76.985464,-12.149464,0],[-76.983318,-12.150303,0],[-76.981258,-12.142206,0],[-76.980056,-12.136249,0],[-76.977224,-12.128738,0],[-76.977267,-12.117493,0],[-76.978827,-12.110159,0],[-76.984495,-12.111032,0],[-76.992415,-12.111427,0],[-76.993413,-12.111519,0],[-76.993468,-12.111905,0],[-76.997609,-12.120108,0],[-76.998446,-12.120087,0],[-76.998438,-12.121341,0],[-77.001785,-12.125264,0],[-77.002408,-12.12581,0],[-77.002587,-12.126318,0]]]},"properties":{"name":"SURCO ZONA B","description":"MV","styleUrl":"#poly-E65100-2386-77","fill-opacity":0.30196078431372547,"fill":"#e65100","stroke-opacity":1,"stroke":"#e65100","stroke-width":2.386}},{"type":"Feature","geometry":{"type":"Polygon","coordinates":[[[-76.981504,-12.087733,0],[-76.978413,-12.107027,0],[-76.977469,-12.115083,0],[-76.976868,-12.120916,0],[-76.97704,-12.129098,0],[-76.979072,-12.134075,0],[-76.979809,-12.136291,0],[-76.980375,-12.138423,0],[-76.978562,-12.138528,0],[-76.977725,-12.139015,0],[-76.977451,-12.139209,0],[-76.976716,-12.139765,0],[-76.976405,-12.140909,0],[-76.976394,-12.140995,0],[-76.977159,-12.141294,0],[-76.97685,-12.141929,0],[-76.976384,-12.143072,0],[-76.976102,-12.143457,0],[-76.975335,-12.142786,0],[-76.974477,-12.142188,0],[-76.97453,-12.141705,0],[-76.974831,-12.140447,0],[-76.974702,-12.139282,0],[-76.975603,-12.136576,0],[-76.976516,-12.134168,0],[-76.975443,-12.134147,0],[-76.972997,-12.135364,0],[-76.972138,-12.133643,0],[-76.97025,-12.13314,0],[-76.964757,-12.12542,0],[-76.961667,-12.123574,0],[-76.959336,-12.118523,0],[-76.955517,-12.11546,0],[-76.950453,-12.115754,0],[-76.944221,-12.118741,0],[-76.947997,-12.112867,0],[-76.955636,-12.102209,0],[-76.960786,-12.095243,0],[-76.96113,-12.091047,0],[-76.960615,-12.087858,0],[-76.956795,-12.086767,0],[-76.957653,-12.083577,0],[-76.954735,-12.080052,0],[-76.957825,-12.07787,0],[-76.956881,-12.076191,0],[-76.95937,-12.075352,0],[-76.964176,-12.077199,0],[-76.967266,-12.081395,0],[-76.970185,-12.083409,0],[-76.97173,-12.075268,0],[-76.974305,-12.073002,0],[-76.976622,-12.079968,0],[-76.981171,-12.084417,0],[-76.981504,-12.087733,0]]]},"properties":{"name":"SURCO ZONA C","description":"XS","styleUrl":"#poly-006064-4771-105","fill-opacity":0.4117647058823529,"fill":"#006064","stroke-opacity":1,"stroke":"#006064","stroke-width":4.771}},{"type":"Feature","geometry":{"type":"Polygon","coordinates":[[[-77.017949,-12.12863,0],[-77.017874,-12.135938,0],[-77.012225,-12.141241,0],[-77.014392,-12.143688,0],[-77.015653,-12.146502,0],[-77.018355,-12.152664,0],[-77.015611,-12.154737,0],[-77.016029,-12.15559,0],[-77.007399,-12.160325,0],[-77.007764,-12.161521,0],[-77.009717,-12.161248,0],[-77.010823,-12.162481,0],[-77.011112,-12.162758,0],[-77.011691,-12.162674,0],[-77.01212,-12.163534,0],[-77.011712,-12.163912,0],[-77.014409,-12.166302,0],[-77.014624,-12.167298,0],[-77.010032,-12.167833,0],[-77.008251,-12.168861,0],[-77.005955,-12.17121,0],[-77.004732,-12.173203,0],[-77.003036,-12.174063,0],[-77.000138,-12.1645,0],[-76.998034,-12.166785,0],[-76.998185,-12.167352,0],[-76.995032,-12.169648,0],[-76.994645,-12.169261,0],[-76.993445,-12.170414,0],[-76.993595,-12.170707,0],[-76.991962,-12.17203,0],[-76.990935,-12.172384,0],[-76.990591,-12.172931,0],[-76.990162,-12.173475,0],[-76.988875,-12.173181,0],[-76.9881,-12.171967,0],[-76.986996,-12.170666,0],[-76.984261,-12.167687,0],[-76.984432,-12.167037,0],[-76.984046,-12.165107,0],[-76.983701,-12.163912,0],[-76.983916,-12.162717,0],[-76.984151,-12.16253,0],[-76.984344,-12.161439,0],[-76.984318,-12.161219,0],[-76.984715,-12.160904,0],[-76.984981,-12.160831,0],[-76.984839,-12.156697,0],[-76.984899,-12.156273,0],[-76.984008,-12.155728,0],[-76.983766,-12.15397,0],[-76.983868,-12.15178,0],[-76.98353,-12.150362,0],[-76.985311,-12.149543,0],[-76.995825,-12.13574,0],[-77.000712,-12.129082,0],[-77.002786,-12.132114,0],[-77.003392,-12.131868,0],[-77.003439,-12.131448,0],[-77.005137,-12.131628,0],[-77.008485,-12.130538,0],[-77.011208,-12.130604,0],[-77.012437,-12.13038,0],[-77.012215,-12.129255,0],[-77.01565,-12.129555,0],[-77.016755,-12.128674,0],[-77.017949,-12.12863,0]]]},"properties":{"name":"ZONA A SURCO","description":"LJ","styleUrl":"#poly-000000-1889-77","fill-opacity":0.30196078431372547,"fill":"#000000","stroke-opacity":1,"stroke":"#000000","stroke-width":1.889}},{"type":"Feature","geometry":{"type":"Polygon","coordinates":[[[-76.97578,-12.231126,0],[-76.972563,-12.224635,0],[-77.006422,-12.190461,0],[-77.007706,-12.188822,0],[-77.007671,-12.184796,0],[-77.007886,-12.184125,0],[-77.011061,-12.183202,0],[-77.021611,-12.172546,0],[-77.024272,-12.170197,0],[-77.025259,-12.1694,0],[-77.026332,-12.170197,0],[-77.026653,-12.170637,0],[-77.027018,-12.171015,0],[-77.028252,-12.172032,0],[-77.030859,-12.174119,0],[-77.033488,-12.17424,0],[-77.033488,-12.175451,0],[-77.033295,-12.17606,0],[-77.033338,-12.17629,0],[-77.033284,-12.176741,0],[-77.035172,-12.179929,0],[-77.039464,-12.181356,0],[-77.03912,-12.187228,0],[-77.03955,-12.187983,0],[-77.03852,-12.19092,0],[-77.040322,-12.193269,0],[-77.038605,-12.194276,0],[-77.037172,-12.195503,0],[-77.034468,-12.198565,0],[-77.034211,-12.200705,0],[-77.03464,-12.201963,0],[-77.036528,-12.202383,0],[-77.036614,-12.203138,0],[-77.038159,-12.205738,0],[-77.035498,-12.206619,0],[-77.031207,-12.207626,0],[-76.97578,-12.231126,0]]]},"properties":{"name":"ZONA B CHORRILLOS","description":"MV","styleUrl":"#poly-E65100-3479-77","fill-opacity":0.30196078431372547,"fill":"#e65100","stroke-opacity":1,"stroke":"#e65100","stroke-width":3.479}},{"type":"Feature","geometry":{"type":"Polygon","coordinates":[[[-76.981275,-12.172289,0],[-76.982995,-12.172132,0],[-76.984197,-12.168147,0],[-76.988875,-12.173181,0],[-76.990162,-12.173475,0],[-76.990935,-12.172384,0],[-76.991922,-12.1723,0],[-76.991879,-12.173727,0],[-76.994497,-12.176328,0],[-77.000247,-12.183753,0],[-77.007457,-12.185179,0],[-77.007706,-12.188822,0],[-76.977159,-12.219197,0],[-76.973062,-12.196284,0],[-76.976672,-12.195597,0],[-76.976769,-12.19577,0],[-76.976839,-12.195676,0],[-76.977713,-12.194837,0],[-76.977761,-12.19469,0],[-76.978348,-12.193895,0],[-76.979142,-12.192752,0],[-76.979749,-12.191352,0],[-76.980022,-12.190539,0],[-76.980065,-12.18906,0],[-76.980131,-12.18838,0],[-76.980474,-12.188186,0],[-76.980623,-12.18769,0],[-76.983539,-12.188351,0],[-76.983828,-12.185524,0],[-76.982112,-12.185188,0],[-76.982562,-12.181853,0],[-76.983163,-12.179504,0],[-76.982605,-12.176358,0],[-76.98106,-12.17426,0],[-76.981275,-12.172289,0]]]},"properties":{"name":"ZONA C CHORRILLOS","description":"XS","styleUrl":"#poly-006064-3082-156","fill-opacity":0.611764705882353,"fill":"#006064","stroke-opacity":1,"stroke":"#006064","stroke-width":3.082}},{"type":"Feature","geometry":{"type":"Polygon","coordinates":[[[-77.02453,-12.156779,0],[-77.026663,-12.157455,0],[-77.026299,-12.158168,0],[-77.026599,-12.158734,0],[-77.027479,-12.158965,0],[-77.027844,-12.159133,0],[-77.027608,-12.159427,0],[-77.027672,-12.160329,0],[-77.027414,-12.160727,0],[-77.027479,-12.163202,0],[-77.030622,-12.166564,0],[-77.038701,-12.167324,0],[-77.038079,-12.169096,0],[-77.035118,-12.172567,0],[-77.033488,-12.17424,0],[-77.030956,-12.174108,0],[-77.025356,-12.169389,0],[-77.021935,-12.172199,0],[-77.0186,-12.175472,0],[-77.011158,-12.183191,0],[-77.007982,-12.184114,0],[-77.007768,-12.184785,0],[-77.001116,-12.18361,0],[-76.998841,-12.181093,0],[-76.991976,-12.173715,0],[-76.992059,-12.172019,0],[-76.993679,-12.171038,0],[-76.993541,-12.170402,0],[-76.994742,-12.16925,0],[-76.995129,-12.169637,0],[-76.9984,-12.167681,0],[-76.99813,-12.166773,0],[-77.000235,-12.164488,0],[-77.003133,-12.174051,0],[-77.004829,-12.173191,0],[-77.005708,-12.171878,0],[-77.00794,-12.169235,0],[-77.010012,-12.167915,0],[-77.014721,-12.167287,0],[-77.014572,-12.166373,0],[-77.011809,-12.163901,0],[-77.012217,-12.163523,0],[-77.011788,-12.162663,0],[-77.011176,-12.162758,0],[-77.009781,-12.161248,0],[-77.007861,-12.161509,0],[-77.007496,-12.160314,0],[-77.018908,-12.154178,0],[-77.01968,-12.154765,0],[-77.02453,-12.156779,0]]]},"properties":{"name":"ZONA A CHORRILLOS","description":"LJ","styleUrl":"#poly-000000-2287-77","fill-opacity":0.30196078431372547,"fill":"#000000","stroke-opacity":1,"stroke":"#000000","stroke-width":2.287}},{"type":"Feature","geometry":{"type":"Polygon","coordinates":[[[-76.954832,-12.080094,0],[-76.95775,-12.083619,0],[-76.956892,-12.086809,0],[-76.960711,-12.0879,0],[-76.960883,-12.095285,0],[-76.944317,-12.118783,0],[-76.936956,-12.119536],[-76.92864,-12.120209],[-76.928134,-12.114908],[-76.930753,-12.112168],[-76.931397,-12.106912],[-76.932582,-12.104256,0],[-76.934986,-12.101235,0],[-76.94168,-12.097374,0],[-76.943912,-12.089989,0],[-76.943912,-12.087806,0],[-76.946401,-12.088058,0],[-76.948633,-12.084827,0],[-76.952152,-12.080085,0],[-76.954832,-12.080094,0]]]},"properties":{"name":"ZONA C LA MOLINA","description":"XS","styleUrl":"#poly-006064-3380-130","fill-opacity":0.5098039215686274,"fill":"#006064","stroke-opacity":1,"stroke":"#006064","stroke-width":3.38}},{"type":"Feature","geometry":{"type":"Polygon","coordinates":[[[-76.940144,-12.08693,0],[-76.934135,-12.091462,0],[-76.925467,-12.100106,0],[-76.891993,-12.10103,0],[-76.893108,-12.087937,0],[-76.888731,-12.092259,0],[-76.88519,-12.089909,0],[-76.881779,-12.084076,0],[-76.889675,-12.082901,0],[-76.892765,-12.07753,0],[-76.90461,-12.075851,0],[-76.907871,-12.073165,0],[-76.913021,-12.07048,0],[-76.917999,-12.075012,0],[-76.925552,-12.078873,0],[-76.935852,-12.074508,0],[-76.937054,-12.075683,0],[-76.938084,-12.076691,0],[-76.940144,-12.08693,0]]]},"properties":{"name":"ZONA B LA MOLINA","description":"MV","styleUrl":"#poly-E65100-2783-99","fill-opacity":0.38823529411764707,"fill":"#e65100","stroke-opacity":1,"stroke":"#e65100","stroke-width":2.783}},{"type":"Feature","geometry":{"type":"Polygon","coordinates":[[[-76.943468,-12.058447,0],[-76.943811,-12.057482,0],[-76.952737,-12.060923,0],[-76.956686,-12.06235,0],[-76.961235,-12.062602,0],[-76.970676,-12.067638,0],[-76.973766,-12.073345,0],[-76.971277,-12.077542,0],[-76.970281,-12.083451,0],[-76.963638,-12.076703,0],[-76.959467,-12.075394,0],[-76.956342,-12.076535,0],[-76.957922,-12.077912,0],[-76.954832,-12.080094,0],[-76.952152,-12.080085,0],[-76.950105,-12.082505,0],[-76.946307,-12.087632,0],[-76.943313,-12.087531,0],[-76.940233,-12.085668,0],[-76.939332,-12.083031,0],[-76.93903,-12.07901,0],[-76.937054,-12.075683,0],[-76.936258,-12.073765,0],[-76.938876,-12.065791,0],[-76.943468,-12.058447,0]]]},"properties":{"name":"ZONA A LA MOLINA","description":"LJ","styleUrl":"#poly-000000-1200-77","fill-opacity":0.30196078431372547,"fill":"#000000","stroke-opacity":1,"stroke":"#000000","stroke-width":1.2}},{"type":"Feature","geometry":{"type":"Polygon","coordinates":[[[-76.983318,-12.150303,0],[-76.984839,-12.156697,0],[-76.984715,-12.160904,0],[-76.983701,-12.163912,0],[-76.984197,-12.168147,0],[-76.982995,-12.172132,0],[-76.980253,-12.173066,0],[-76.971069,-12.170801,0],[-76.965232,-12.169458,0],[-76.961628,-12.169962,0],[-76.957079,-12.170423,0],[-76.956049,-12.168997,0],[-76.957765,-12.167948,0],[-76.956993,-12.165599,0],[-76.957937,-12.164256,0],[-76.956821,-12.1609,0],[-76.956759,-12.160195,0],[-76.956051,-12.159429,0],[-76.960982,-12.155492,0],[-76.974012,-12.143467,0],[-76.974573,-12.14223,0],[-76.976199,-12.143499,0],[-76.977234,-12.141252,0],[-76.976502,-12.140951,0],[-76.976797,-12.13986,0],[-76.977934,-12.13897,0],[-76.978523,-12.13861,0],[-76.97892,-12.138585,0],[-76.980471,-12.138465,0],[-76.983318,-12.150303,0]]]},"properties":{"name":"ZONA C SJM","description":"XS","styleUrl":"#poly-006064-3082-140","fill-opacity":0.5490196078431373,"fill":"#006064","stroke-opacity":1,"stroke":"#006064","stroke-width":3.082}},{"type":"Feature","geometry":{"type":"Polygon","coordinates":[[[-76.973062,-12.196284,0],[-76.972162,-12.192366,0],[-76.967785,-12.193289,0],[-76.961176,-12.19266,0],[-76.957099,-12.190856,0],[-76.957914,-12.189262,0],[-76.955854,-12.188046,0],[-76.954781,-12.186955,0],[-76.953365,-12.185445,0],[-76.955146,-12.184459,0],[-76.955222,-12.180393,0],[-76.954793,-12.177918,0],[-76.955436,-12.17645,0],[-76.955136,-12.174688,0],[-76.955136,-12.172339,0],[-76.955823,-12.171248,0],[-76.956123,-12.170199,0],[-76.957121,-12.170465,0],[-76.965275,-12.1695,0],[-76.980296,-12.173108,0],[-76.981486,-12.172758,0],[-76.981103,-12.174302,0],[-76.982645,-12.176702,0],[-76.983117,-12.179219,0],[-76.982155,-12.18523,0],[-76.983871,-12.185566,0],[-76.983582,-12.188393,0],[-76.981143,-12.187776,0],[-76.980623,-12.18769,0],[-76.980474,-12.188186,0],[-76.980131,-12.18838,0],[-76.980022,-12.190539,0],[-76.978884,-12.192984,0],[-76.9778,-12.194521,0],[-76.976715,-12.195639,0],[-76.973062,-12.196284,0]]]},"properties":{"name":"ZONA B SJM","description":"MV","styleUrl":"#poly-E65100-2684-102","fill-opacity":0.4,"fill":"#e65100","stroke-opacity":1,"stroke":"#e65100","stroke-width":2.684}},{"type":"Feature","geometry":{"type":"Polygon","coordinates":[[[-76.931875,-12.140496,0],[-76.93136,-12.133615,0],[-76.923587,-12.121188,0],[-76.932991,-12.120986,0],[-76.934491,-12.121822,0],[-76.936002,-12.123089,0],[-76.940903,-12.122247,0],[-76.942554,-12.122544,0],[-76.945321,-12.124771,0],[-76.945535,-12.127163,0],[-76.946479,-12.129387,0],[-76.946823,-12.131652,0],[-76.950814,-12.134673,0],[-76.952243,-12.136523],[-76.952764,-12.137684],[-76.955685,-12.142498,0],[-76.955964,-12.144994,0],[-76.959023,-12.15312,0],[-76.958755,-12.15355,0],[-76.958804,-12.153834,0],[-76.958069,-12.154784,0],[-76.960981,-12.155212,0],[-76.956051,-12.159429,0],[-76.956759,-12.160195,0],[-76.956821,-12.1609,0],[-76.957937,-12.164256,0],[-76.956993,-12.165599,0],[-76.957765,-12.167948,0],[-76.956049,-12.168997,0],[-76.948612,-12.170786,0],[-76.940372,-12.174813,0],[-76.930867,-12.170492,0],[-76.925717,-12.164284,0],[-76.916511,-12.156438,0],[-76.914366,-12.149055,0],[-76.914451,-12.137056,0],[-76.923035,-12.137811,0],[-76.929053,-12.139753],[-76.931875,-12.140496,0]]]},"properties":{"name":"ZONA A VMT ","description":"LJ","styleUrl":"#poly-000000-1200-77","fill-opacity":0.30196078431372547,"fill":"#000000","stroke-opacity":1,"stroke":"#000000","stroke-width":1.2}},{"type":"Feature","geometry":{"type":"Polygon","coordinates":[[[-76.942969,-12.183077,0],[-76.935416,-12.194487,0],[-76.933528,-12.192809,0],[-76.922971,-12.18702,0],[-76.91928,-12.185175,0],[-76.919881,-12.178043,0],[-76.914903,-12.175359,0],[-76.912156,-12.166297,0],[-76.909753,-12.158242,0],[-76.916511,-12.156438,0],[-76.925717,-12.164284,0],[-76.930867,-12.170492,0],[-76.940372,-12.174813,0],[-76.948612,-12.170786,0],[-76.956049,-12.168997,0],[-76.957079,-12.170423,0],[-76.95608,-12.170158,0],[-76.95578,-12.171206,0],[-76.955093,-12.172297,0],[-76.955093,-12.174646,0],[-76.955394,-12.176408,0],[-76.95475,-12.177876,0],[-76.955179,-12.180351,0],[-76.955103,-12.184417,0],[-76.953322,-12.185403,0],[-76.953999,-12.187356,0],[-76.952497,-12.187901,0],[-76.950136,-12.186727,0],[-76.949192,-12.185175,0],[-76.946488,-12.184629,0],[-76.942969,-12.183077,0]]]},"properties":{"name":"ZONA B VMT","description":"MV","styleUrl":"#poly-E65100-2783-120","fill-opacity":0.47058823529411764,"fill":"#e65100","stroke-opacity":1,"stroke":"#e65100","stroke-width":2.783}},{"type":"Feature","geometry":{"type":"Polygon","coordinates":[[[-76.934176,-12.196481,0],[-76.927997,-12.206527,0],[-76.922246,-12.215482,0],[-76.918641,-12.226723,0],[-76.909629,-12.230582,0],[-76.905938,-12.216489,0],[-76.906281,-12.208268,0],[-76.908513,-12.201557,0],[-76.906453,-12.190483,0],[-76.906281,-12.185114,0],[-76.914903,-12.175359,0],[-76.919881,-12.178043,0],[-76.91928,-12.185175,0],[-76.925507,-12.188805,0],[-76.933528,-12.192809,0],[-76.935416,-12.194487,0],[-76.934176,-12.196481,0]]]},"properties":{"name":"ZONA C VMT","description":"XS","styleUrl":"#poly-006064-2585-166","fill-opacity":0.6509803921568628,"fill":"#006064","stroke-opacity":1,"stroke":"#006064","stroke-width":2.585}},{"type":"Feature","properties":{"name":"ZONA A SJM","description":"LJ"},"geometry":{"type":"Polygon","coordinates":[[[-76.976325,-12.134291],[-76.974601,-12.139296],[-76.974723,-12.140414],[-76.974334,-12.142173],[-76.974358,-12.142364],[-76.97392,-12.143362],[-76.961124,-12.155131],[-76.958158,-12.154759],[-76.958836,-12.153875],[-76.958777,-12.153572],[-76.959061,-12.153156],[-76.958106,-12.150358],[-76.95613,-12.145],[-76.955847,-12.142484],[-76.952458,-12.13648],[-76.950952,-12.134664],[-76.947012,-12.131581],[-76.946685,-12.129314],[-76.945761,-12.127157],[-76.94559,-12.124631],[-76.94102,-12.121328],[-76.944483,-12.119108],[-76.950615,-12.11611],[-76.955328,-12.115833],[-76.958905,-12.118775],[-76.959825,-12.120408],[-76.961155,-12.123426],[-76.964199,-12.125414],[-76.969784,-12.133181],[-76.971829,-12.133758],[-76.973151,-12.135501],[-76.975424,-12.134313],[-76.976325,-12.134291]]]}}]}